{"type":"FeatureCollection","features":[{"type":"Feature","properties":{"shapeName":"Cambodia","shapeID":"94605694B21364896376597"},"geometry":{"type":"MultiPolygon","coordinates":[[[[102.883874,9.932329],[102.881127,9.932836],[102.880269,9.930976],[102.883016,9.925404],[102.898465,9.913568],[102.906877,9.914244],[102.90722,9.916273],[102.899495,9.92067],[102.892972,9.920839],[102.887822,9.928609],[102.888165,9.931145],[102.883874,9.932329]]],[[[102.925751,9.924728],[102.920601,9.927425],[102.920017,9.930773],[102.915803,9.935203],[102.912541,9.933512],[102.918378,9.925235],[102.930145,9.91454],[102.935123,9.914878],[102.936737,9.917457],[102.938385,9.917584],[102.937252,9.920501],[102.938454,9.921346],[102.930901,9.923883],[102.930557,9.925734],[102.925751,9.924728]]],[[[103.138194,10.316947],[103.139275,10.318585],[103.136286,10.324893],[103.134569,10.314084],[103.130546,10.308469],[103.123826,10.304297],[103.128504,10.293691],[103.138003,10.292804],[103.144399,10.287247],[103.146451,10.267983],[103.148614,10.271362],[103.155944,10.272502],[103.154399,10.277561],[103.15663,10.280668],[103.151652,10.279917],[103.148124,10.283667],[103.147112,10.288582],[103.141092,10.293817],[103.138726,10.297863],[103.138863,10.304965],[103.142809,10.310369],[103.147987,10.309525],[103.151592,10.310884],[103.151049,10.315098],[103.14288,10.313595],[103.138194,10.316947]]],[[[103.798871,10.432236],[103.792347,10.437469],[103.78736,10.436976],[103.785305,10.433099],[103.787884,10.428859],[103.788144,10.425475],[103.782515,10.421453],[103.783936,10.417548],[103.787687,10.414256],[103.794533,10.416289],[103.796961,10.415022],[103.801617,10.40556],[103.805442,10.402933],[103.807786,10.403172],[103.809346,10.40635],[103.804892,10.412304],[103.805479,10.415389],[103.807797,10.418054],[103.812204,10.419817],[103.815622,10.418485],[103.816388,10.421819],[103.821873,10.423119],[103.823398,10.426299],[103.816687,10.429646],[103.804134,10.429205],[103.80249,10.43242],[103.798871,10.432236]]],[[[104.323064,10.444033],[104.322553,10.44509],[104.321127,10.443102],[104.321135,10.437937],[104.314743,10.432664],[104.319607,10.432694],[104.323667,10.429365],[104.327031,10.429698],[104.328833,10.43231],[104.332238,10.432055],[104.334843,10.438953],[104.323064,10.444033]]],[[[103.56399,10.49817],[103.55905,10.500984],[103.554245,10.497917],[103.548955,10.496859],[103.547612,10.495137],[103.554262,10.495854],[103.558894,10.491222],[103.559591,10.487323],[103.564353,10.487564],[103.567129,10.492552],[103.56399,10.49817]]],[[[103.58915,10.505365],[103.583046,10.5097],[103.580102,10.508419],[103.578842,10.505851],[103.578626,10.501302],[103.585412,10.495604],[103.588067,10.490789],[103.586848,10.486782],[103.581681,10.485505],[103.580113,10.482302],[103.587337,10.47884],[103.58928,10.481059],[103.592313,10.480828],[103.595739,10.478755],[103.597299,10.47397],[103.599607,10.473853],[103.60093,10.47564],[103.598584,10.477797],[103.599865,10.480409],[103.607943,10.483069],[103.605843,10.488525],[103.60637,10.490855],[103.604071,10.494344],[103.599444,10.496895],[103.600301,10.504854],[103.599072,10.506234],[103.58915,10.505365]]],[[[103.794854,10.485374],[103.795917,10.50123],[103.788399,10.508703],[103.76986,10.516974],[103.748275,10.520114],[103.742069,10.51926],[103.740334,10.516636],[103.745185,10.509194],[103.748333,10.488393],[103.747748,10.484251],[103.745023,10.476666],[103.733328,10.480832],[103.732438,10.479503],[103.734098,10.475012],[103.732395,10.474007],[103.734814,10.472491],[103.73519,10.470548],[103.738006,10.471928],[103.740903,10.470092],[103.754979,10.456672],[103.758906,10.44973],[103.762103,10.446987],[103.766523,10.446058],[103.770429,10.440879],[103.77398,10.444897],[103.778443,10.445572],[103.779644,10.449962],[103.782219,10.452325],[103.79017,10.453844],[103.792766,10.455934],[103.796199,10.455322],[103.797497,10.456714],[103.796811,10.46431],[103.795437,10.465323],[103.794854,10.485374]]],[[[103.422395,10.611148],[103.420195,10.612065],[103.414615,10.611082],[103.408393,10.604738],[103.417458,10.607415],[103.430086,10.606895],[103.432903,10.609119],[103.422395,10.611148]]],[[[103.316011,10.622728],[103.311759,10.625867],[103.305669,10.618449],[103.300763,10.616955],[103.298718,10.6172],[103.294757,10.620839],[103.294572,10.624158],[103.284276,10.617262],[103.279586,10.611828],[103.278855,10.608178],[103.282099,10.598166],[103.283826,10.586521],[103.291302,10.579158],[103.295448,10.577032],[103.296505,10.573774],[103.294854,10.567233],[103.29597,10.565706],[103.300324,10.568496],[103.30237,10.568132],[103.305854,10.564599],[103.304934,10.561522],[103.30928,10.560353],[103.308992,10.557877],[103.311178,10.556534],[103.312939,10.550567],[103.310624,10.54676],[103.311025,10.545113],[103.316698,10.542525],[103.324229,10.542614],[103.325578,10.543873],[103.324705,10.548659],[103.327136,10.550415],[103.324896,10.560213],[103.33102,10.568214],[103.33657,10.571429],[103.339399,10.575263],[103.33887,10.579392],[103.336885,10.579112],[103.334721,10.581752],[103.334743,10.587588],[103.332411,10.589796],[103.330659,10.589492],[103.327805,10.576444],[103.324149,10.571703],[103.316203,10.573387],[103.304772,10.583744],[103.305385,10.588606],[103.307768,10.5886],[103.31184,10.591237],[103.306705,10.593572],[103.302472,10.597485],[103.303133,10.599125],[103.301142,10.60099],[103.303055,10.604635],[103.311783,10.604125],[103.318639,10.606865],[103.322974,10.605741],[103.323647,10.607249],[103.322924,10.611334],[103.319186,10.611918],[103.315921,10.616279],[103.315779,10.620796],[103.318339,10.621435],[103.316011,10.622728]]],[[[103.478422,10.629566],[103.476059,10.6309],[103.474929,10.634289],[103.472441,10.627299],[103.480954,10.622086],[103.488523,10.628152],[103.484206,10.633122],[103.480799,10.629834],[103.478422,10.629566]]],[[[103.232723,10.779685],[103.231816,10.78073],[103.229979,10.779698],[103.230459,10.773308],[103.222091,10.765467],[103.216088,10.764376],[103.215375,10.765688],[103.210993,10.765355],[103.204736,10.767666],[103.205403,10.76954],[103.203667,10.770244],[103.194164,10.770505],[103.189581,10.764784],[103.191074,10.753546],[103.185752,10.740517],[103.181845,10.737095],[103.187089,10.732261],[103.192009,10.736321],[103.192865,10.73883],[103.196566,10.737492],[103.197938,10.738332],[103.201848,10.735282],[103.203169,10.733297],[103.202777,10.729798],[103.200835,10.729096],[103.201106,10.726729],[103.205567,10.720311],[103.202284,10.71795],[103.201725,10.715503],[103.211103,10.704782],[103.218797,10.702229],[103.2266,10.701606],[103.231581,10.708521],[103.241265,10.706675],[103.245371,10.703347],[103.253913,10.68929],[103.259163,10.671931],[103.258266,10.664035],[103.259576,10.655359],[103.263862,10.651162],[103.267595,10.65151],[103.270892,10.657287],[103.273538,10.65847],[103.272938,10.665193],[103.275313,10.668462],[103.278492,10.669523],[103.279721,10.676448],[103.283067,10.680322],[103.291197,10.682999],[103.294913,10.681941],[103.297695,10.678664],[103.299071,10.682851],[103.302603,10.684355],[103.304781,10.688023],[103.311345,10.690931],[103.315361,10.698101],[103.313528,10.705253],[103.315609,10.708598],[103.308891,10.712855],[103.308922,10.710612],[103.305912,10.707798],[103.306317,10.705858],[103.302745,10.701373],[103.299054,10.700512],[103.291292,10.704621],[103.291864,10.70819],[103.295899,10.709276],[103.296286,10.712056],[103.290385,10.719488],[103.289626,10.723032],[103.282963,10.725736],[103.278775,10.72147],[103.271181,10.724094],[103.266239,10.717059],[103.266213,10.718463],[103.260539,10.721084],[103.261271,10.724611],[103.259469,10.726223],[103.257471,10.725644],[103.253077,10.734439],[103.252927,10.736194],[103.258441,10.740058],[103.256536,10.747622],[103.25689,10.753964],[103.253735,10.75621],[103.248899,10.766416],[103.254017,10.767723],[103.257011,10.771507],[103.246786,10.777149],[103.24461,10.7766],[103.23976,10.779105],[103.237026,10.777862],[103.232723,10.779685]]],[[[103.186344,10.833079],[103.183348,10.836567],[103.180052,10.832841],[103.176297,10.832159],[103.173302,10.82964],[103.16973,10.829854],[103.168412,10.83154],[103.167798,10.830598],[103.167283,10.832205],[103.16582,10.830813],[103.171122,10.821014],[103.176562,10.816485],[103.180594,10.818407],[103.189038,10.81835],[103.196337,10.82085],[103.196677,10.825605],[103.190068,10.826699],[103.189091,10.832222],[103.186344,10.833079]]],[[[103.084173,10.897759],[103.075045,10.905702],[103.072787,10.906009],[103.071593,10.904388],[103.072197,10.900335],[103.068771,10.897654],[103.066581,10.889773],[103.069668,10.888114],[103.077962,10.887783],[103.080437,10.889038],[103.088175,10.888213],[103.091011,10.889286],[103.09044,10.894463],[103.08547,10.895615],[103.084173,10.897759]]],[[[102.98247,11.418017],[102.983316,11.421725],[102.981487,11.421851],[102.975412,11.41374],[102.970795,11.401698],[102.971588,11.396581],[102.970284,11.394463],[102.973625,11.390172],[102.980096,11.371439],[102.981338,11.37173],[102.978546,11.368123],[102.978175,11.361616],[102.975189,11.358945],[102.975143,11.355793],[102.979636,11.350862],[102.990496,11.318026],[102.980877,11.305425],[102.981054,11.302336],[102.984073,11.301049],[102.985517,11.296149],[102.983441,11.292367],[102.985554,11.28585],[102.983992,11.282741],[102.986126,11.278312],[102.980342,11.275977],[102.985387,11.270224],[102.988603,11.269724],[102.988434,11.27095],[102.992458,11.27219],[102.989341,11.268806],[102.992605,11.260407],[102.989364,11.25819],[102.988914,11.254642],[102.990183,11.25412],[102.99431,11.257056],[102.997466,11.256204],[102.999968,11.251677],[102.99866,11.247425],[103.006312,11.251222],[103.010531,11.24518],[103.016677,11.242595],[103.022672,11.245323],[103.02537,11.249],[103.027854,11.25967],[103.034532,11.271634],[103.031527,11.275316],[103.034437,11.274852],[103.036409,11.281376],[103.039321,11.285106],[103.040794,11.291521],[103.042588,11.293594],[103.041646,11.301021],[103.04449,11.306124],[103.04082,11.31624],[103.037622,11.320784],[103.041613,11.329327],[103.041249,11.334448],[103.036963,11.338839],[103.033943,11.338891],[103.033136,11.342013],[103.027982,11.347061],[103.028066,11.35267],[103.034544,11.376404],[103.033485,11.381031],[103.021808,11.401195],[103.023211,11.406447],[103.020443,11.409283],[103.019863,11.413207],[103.017367,11.416624],[103.015709,11.416598],[103.014224,11.418889],[103.007537,11.417715],[103.004033,11.41876],[102.997735,11.414147],[102.995452,11.41064],[102.988888,11.409155],[102.987062,11.406536],[102.986749,11.407964],[102.985176,11.40757],[102.98423,11.410419],[102.986951,11.417043],[102.985496,11.418597],[102.98247,11.418017]]],[[[102.935215,11.600561],[102.933106,11.600681],[102.930706,11.595549],[102.932996,11.586194],[102.935793,11.58582],[102.936656,11.588296],[102.940342,11.587045],[102.947951,11.571836],[102.954613,11.564806],[102.957848,11.571117],[102.961642,11.590949],[102.958803,11.592907],[102.959064,11.58989],[102.957592,11.590141],[102.958392,11.592907],[102.957158,11.589957],[102.94942,11.594575],[102.949002,11.593224],[102.953883,11.588184],[102.944931,11.585186],[102.939789,11.59032],[102.940982,11.593206],[102.9396,11.594221],[102.938176,11.590602],[102.939526,11.590159],[102.939015,11.588885],[102.937024,11.589111],[102.937362,11.595753],[102.935215,11.600561]]],[[[107.541123,14.687233],[107.536141,14.690242],[107.529807,14.682574],[107.525507,14.682133],[107.523536,14.67556],[107.52479,14.662956],[107.520977,14.658182],[107.519648,14.65001],[107.517767,14.647892],[107.508955,14.644149],[107.506661,14.638784],[107.501041,14.638071],[107.500572,14.635731],[107.497113,14.63339],[107.49952,14.631818],[107.498066,14.627585],[107.494897,14.626645],[107.492813,14.622475],[107.489539,14.621364],[107.484397,14.624615],[107.477907,14.624793],[107.46923,14.621364],[107.463393,14.614088],[107.463752,14.609964],[107.461259,14.606554],[107.467784,14.595833],[107.466382,14.59081],[107.461187,14.59003],[107.458915,14.59128],[107.453388,14.587319],[107.451854,14.584593],[107.455541,14.583268],[107.458144,14.576643],[107.455514,14.565975],[107.456787,14.562948],[107.455016,14.560029],[107.455336,14.557593],[107.453119,14.55224],[107.448388,14.549435],[107.449763,14.545307],[107.446609,14.541577],[107.4499,14.536017],[107.452836,14.535785],[107.454145,14.53307],[107.448653,14.52842],[107.440517,14.526446],[107.437487,14.524047],[107.428125,14.527728],[107.422911,14.52775],[107.417141,14.533011],[107.409417,14.536638],[107.407091,14.536131],[107.396123,14.542734],[107.394472,14.539835],[107.392919,14.540771],[107.386547,14.537421],[107.385029,14.541275],[107.375976,14.540186],[107.374636,14.541524],[107.375117,14.543623],[107.371645,14.542959],[107.370935,14.545145],[107.368225,14.546304],[107.367975,14.548739],[107.362739,14.555237],[107.364765,14.560466],[107.363749,14.566131],[107.358772,14.569872],[107.356848,14.569536],[107.357331,14.572439],[107.355087,14.574744],[107.351232,14.575598],[107.350095,14.577612],[107.343858,14.578866],[107.342734,14.581224],[107.339905,14.581994],[107.339986,14.584749],[107.328071,14.591605],[107.31754,14.58695],[107.314515,14.58896],[107.298758,14.587916],[107.294429,14.585119],[107.291628,14.580615],[107.288491,14.58111],[107.287258,14.57953],[107.289387,14.574377],[107.287853,14.571086],[107.282245,14.570085],[107.282199,14.563677],[107.285167,14.558797],[107.282856,14.555922],[107.28133,14.548291],[107.275914,14.54111],[107.273256,14.540155],[107.271955,14.54264],[107.264868,14.543802],[107.260757,14.542221],[107.261039,14.538442],[107.259763,14.537941],[107.256335,14.525389],[107.253315,14.522023],[107.253499,14.510193],[107.255678,14.509083],[107.256093,14.506394],[107.254881,14.4998],[107.257853,14.496838],[107.25832,14.492289],[107.247282,14.482635],[107.242171,14.481947],[107.237597,14.478451],[107.231208,14.481282],[107.229209,14.485462],[107.221782,14.482157],[107.218383,14.487966],[107.206915,14.487657],[107.207613,14.483499],[107.205067,14.482462],[107.20351,14.478692],[107.20039,14.476529],[107.200372,14.471854],[107.197116,14.466106],[107.197416,14.450864],[107.194066,14.445541],[107.194093,14.442646],[107.190784,14.442264],[107.189945,14.43699],[107.182622,14.436936],[107.17866,14.43353],[107.175715,14.433228],[107.175526,14.424956],[107.173839,14.422531],[107.168738,14.42048],[107.163735,14.414948],[107.15938,14.415045],[107.158045,14.421374],[107.150768,14.422134],[107.14523,14.413511],[107.141954,14.415034],[107.134666,14.415404],[107.132229,14.405267],[107.126771,14.405857],[107.122774,14.403025],[107.123096,14.399935],[107.121328,14.397129],[107.111408,14.393106],[107.106084,14.397784],[107.100893,14.393756],[107.097783,14.3939],[107.093621,14.391815],[107.089482,14.39661],[107.087512,14.395917],[107.087268,14.394308],[107.083453,14.39521],[107.079226,14.403141],[107.077892,14.407654],[107.078829,14.409034],[107.075204,14.414337],[107.078548,14.421752],[107.077448,14.426288],[107.072423,14.427509],[107.068545,14.430443],[107.062424,14.439865],[107.053118,14.439505],[107.042313,14.448952],[107.037611,14.446737],[107.037053,14.443784],[107.040573,14.438023],[107.040832,14.431843],[107.046535,14.42589],[107.045135,14.42166],[107.046144,14.416113],[107.037148,14.412869],[107.035034,14.413819],[107.035459,14.412314],[107.032054,14.407253],[107.027496,14.404086],[107.021948,14.402799],[107.0222,14.399537],[107.01547,14.396928],[107.014198,14.388103],[107.007985,14.38485],[107.003235,14.372238],[107.001032,14.371326],[106.995574,14.354938],[106.990418,14.358961],[106.977287,14.35967],[106.973294,14.35089],[106.970997,14.340102],[106.978968,14.334618],[106.97448,14.329735],[106.972145,14.322108],[106.967202,14.314101],[106.963308,14.315474],[106.958775,14.314426],[106.957381,14.315938],[106.945688,14.31424],[106.941682,14.320262],[106.93673,14.324093],[106.933629,14.323936],[106.919327,14.32961],[106.914636,14.329809],[106.90227,14.334011],[106.900103,14.33245],[106.894887,14.333523],[106.895649,14.326934],[106.89413,14.321314],[106.895178,14.315145],[106.893655,14.312902],[106.885572,14.313599],[106.881105,14.317837],[106.867539,14.318407],[106.863009,14.315936],[106.850071,14.300757],[106.851161,14.295528],[106.850061,14.292812],[106.838959,14.293268],[106.83614,14.307556],[106.833707,14.310713],[106.82708,14.312667],[106.822919,14.310822],[106.815156,14.311834],[106.81224,14.315464],[106.804178,14.319901],[106.798304,14.32581],[106.794226,14.336799],[106.794086,14.341392],[106.786491,14.341119],[106.785314,14.352098],[106.782853,14.357028],[106.77751,14.361203],[106.776556,14.367817],[106.771519,14.371864],[106.769762,14.380648],[106.760814,14.385526],[106.754381,14.386698],[106.754207,14.391703],[106.756802,14.39593],[106.756813,14.400224],[106.749372,14.40927],[106.748975,14.416658],[106.743204,14.422222],[106.743867,14.426281],[106.742104,14.428413],[106.736567,14.430229],[106.735915,14.431959],[106.730389,14.434797],[106.725314,14.435723],[106.72089,14.427866],[106.720117,14.423313],[106.71609,14.422207],[106.707871,14.423522],[106.703261,14.429979],[106.690811,14.428603],[106.687664,14.429773],[106.685128,14.433429],[106.678094,14.432295],[106.675455,14.436308],[106.66544,14.438961],[106.663002,14.438193],[106.660327,14.443367],[106.66352,14.44809],[106.662645,14.448615],[106.658049,14.449409],[106.652691,14.446799],[106.649544,14.448037],[106.64331,14.447078],[106.639379,14.448599],[106.630921,14.443561],[106.628575,14.458668],[106.620552,14.458554],[106.620747,14.461779],[106.615691,14.467345],[106.613577,14.473546],[106.613537,14.479301],[106.616977,14.482794],[106.613535,14.482678],[106.615367,14.486359],[106.61254,14.491798],[106.613571,14.496384],[106.612115,14.497708],[106.607484,14.494927],[106.602904,14.495077],[106.602286,14.499769],[106.600104,14.502101],[106.601357,14.50311],[106.60138,14.508353],[106.596362,14.505714],[106.593265,14.508083],[106.588182,14.508759],[106.586906,14.505259],[106.582119,14.506971],[106.571987,14.500472],[106.564553,14.500626],[106.562248,14.504147],[106.561811,14.509353],[106.566692,14.512771],[106.570492,14.521044],[106.570646,14.524775],[106.560462,14.538012],[106.562562,14.541473],[106.562987,14.546503],[106.558049,14.550473],[106.558054,14.564521],[106.553194,14.568269],[106.553524,14.57075],[106.549083,14.574404],[106.545125,14.591967],[106.523474,14.59167],[106.513813,14.588846],[106.501305,14.580752],[106.490834,14.568957],[106.476071,14.559486],[106.464055,14.554502],[106.458047,14.545529],[106.459763,14.540046],[106.478474,14.51861],[106.478131,14.512627],[106.472638,14.509802],[106.437962,14.523429],[106.430924,14.516616],[106.430752,14.507642],[106.433156,14.499831],[106.439507,14.493515],[106.440022,14.487532],[106.435731,14.481383],[106.427491,14.477394],[106.423199,14.473571],[106.422169,14.4626],[106.414445,14.453957],[106.40981,14.451131],[106.40466,14.449967],[106.389897,14.450798],[106.376164,14.454123],[106.367753,14.453458],[106.34166,14.445146],[106.331513,14.439536],[106.329453,14.439193],[106.325146,14.441927],[106.317837,14.440577],[106.314589,14.441279],[106.311318,14.444574],[106.310943,14.449532],[106.309649,14.450749],[106.302988,14.452543],[106.298632,14.451398],[106.294703,14.457677],[106.295552,14.463072],[106.293529,14.468477],[106.290928,14.468903],[106.287139,14.472589],[106.280111,14.471192],[106.275227,14.477368],[106.269365,14.478668],[106.266421,14.472931],[106.259031,14.487015],[106.253604,14.487729],[106.250708,14.484068],[106.248375,14.470985],[106.24226,14.465403],[106.241169,14.462565],[106.243034,14.460235],[106.243935,14.454615],[106.249303,14.450581],[106.25228,14.443671],[106.249631,14.437865],[106.245854,14.438748],[106.244726,14.437163],[106.244082,14.431072],[106.237662,14.427835],[106.237299,14.418216],[106.239036,14.414516],[106.236165,14.409248],[106.237559,14.398705],[106.231673,14.394438],[106.225082,14.381846],[106.225537,14.374779],[106.218318,14.366421],[106.212752,14.365459],[106.206633,14.371335],[106.203873,14.371782],[106.186541,14.35097],[106.172596,14.35031],[106.160299,14.353659],[106.151466,14.368485],[106.145012,14.371908],[106.132722,14.366002],[106.127046,14.360994],[106.121436,14.358822],[106.121765,14.357183],[106.109296,14.366535],[106.106701,14.366945],[106.103737,14.375758],[106.102023,14.374261],[106.101489,14.369966],[106.095489,14.372934],[106.093972,14.37102],[106.089916,14.371129],[106.086872,14.365756],[106.08187,14.364846],[106.0856,14.35083],[106.082588,14.343129],[106.082874,14.340211],[106.079165,14.337368],[106.073552,14.345611],[106.068496,14.350946],[106.066196,14.351596],[106.061957,14.348628],[106.058644,14.348904],[106.058456,14.343316],[106.050282,14.348234],[106.043094,14.343707],[106.027905,14.345272],[106.017877,14.354638],[106.009119,14.366103],[106.001335,14.371697],[106.001,14.364889],[105.998198,14.360494],[105.998406,14.355986],[105.994756,14.349061],[106.000797,14.343362],[105.996473,14.333882],[105.996836,14.324062],[106.002341,14.318828],[106.002215,14.3137],[106.003731,14.311663],[106.009945,14.311115],[106.013628,14.313787],[106.018677,14.314757],[106.025003,14.309542],[106.025538,14.306714],[106.02324,14.30575],[106.023377,14.299295],[106.034981,14.269911],[106.026599,14.261739],[106.026148,14.257166],[106.028568,14.250832],[106.027044,14.246132],[106.031956,14.242876],[106.031235,14.239772],[106.034329,14.236595],[106.035739,14.22778],[106.048408,14.215835],[106.051757,14.209627],[106.051619,14.202712],[106.058362,14.198375],[106.086561,14.189667],[106.104581,14.188369],[106.109974,14.185901],[106.113052,14.173172],[106.111233,14.146147],[106.114716,14.133968],[106.120294,14.122654],[106.121405,14.109734],[106.125616,14.105624],[106.13724,14.099535],[106.14378,14.089008],[106.14616,14.088576],[106.146529,14.086886],[106.16291,14.07876],[106.168336,14.074509],[106.173369,14.072258],[106.174895,14.072991],[106.176103,14.070436],[106.187717,14.063011],[106.181742,14.050648],[106.182719,14.047836],[106.177777,14.045612],[106.178775,14.03873],[106.177365,14.033245],[106.17434,14.031524],[106.1752,14.026152],[106.170187,14.022827],[106.169148,14.020446],[106.162735,14.017361],[106.157869,14.017469],[106.146257,14.014328],[106.140621,14.01677],[106.137268,14.016507],[106.127481,14.006239],[106.128187,14.000339],[106.123089,13.999424],[106.120337,13.994113],[106.116352,13.992842],[106.104683,13.993204],[106.102335,13.990931],[106.09951,13.981419],[106.104308,13.971308],[106.106891,13.969723],[106.102008,13.963916],[106.104212,13.959533],[106.104116,13.951488],[106.106585,13.945175],[106.104002,13.937567],[106.104122,13.927569],[106.10682,13.914035],[106.105346,13.909675],[106.060475,13.918823],[106.034214,13.919952],[106.03041,13.923808],[106.021397,13.925137],[106.018137,13.927359],[106.015554,13.926223],[106.008484,13.929442],[105.997507,13.9307],[105.992385,13.929037],[105.989702,13.924019],[105.974609,13.925377],[105.95897,13.932729],[105.946512,13.934324],[105.921484,13.929909],[105.910777,13.9304],[105.898568,13.937503],[105.893899,13.947912],[105.874931,13.960434],[105.870034,13.965831],[105.860346,13.969366],[105.852496,13.975651],[105.846308,13.97808],[105.833551,13.987698],[105.824124,14.001474],[105.81051,14.009584],[105.804287,14.017286],[105.797906,14.019658],[105.792666,14.023654],[105.783756,14.044418],[105.785004,14.053376],[105.782553,14.059944],[105.786564,14.068412],[105.788544,14.078929],[105.785898,14.083498],[105.773253,14.088726],[105.741946,14.095771],[105.73697,14.094354],[105.727471,14.108068],[105.724157,14.109232],[105.718258,14.107324],[105.710036,14.09501],[105.709026,14.088785],[105.703859,14.086861],[105.701505,14.088356],[105.69898,14.093761],[105.686508,14.100968],[105.682239,14.10884],[105.667089,14.113777],[105.662111,14.11887],[105.658466,14.120157],[105.655759,14.119353],[105.655021,14.117488],[105.661321,14.114412],[105.66074,14.11076],[105.659031,14.10958],[105.65401,14.112165],[105.651094,14.110587],[105.648756,14.098337],[105.644812,14.097385],[105.632194,14.10841],[105.6355,14.118568],[105.63025,14.125412],[105.633091,14.127171],[105.633664,14.130742],[105.625838,14.129997],[105.620335,14.134608],[105.617777,14.131355],[105.617714,14.126586],[105.616167,14.126225],[105.608831,14.13369],[105.608119,14.144735],[105.603897,14.144337],[105.602235,14.147773],[105.600067,14.148435],[105.592852,14.145436],[105.587259,14.149334],[105.584856,14.149105],[105.585141,14.143654],[105.58932,14.139506],[105.589116,14.137901],[105.58623,14.137751],[105.573548,14.144971],[105.572008,14.150536],[105.568658,14.154304],[105.558438,14.160434],[105.549775,14.158101],[105.548992,14.155699],[105.545404,14.155707],[105.541202,14.15077],[105.538485,14.151574],[105.531864,14.148038],[105.531303,14.144169],[105.528355,14.141952],[105.526281,14.142615],[105.525072,14.141201],[105.523512,14.1427],[105.519552,14.140655],[105.519034,14.137544],[105.515618,14.136454],[105.514733,14.133783],[105.512028,14.135544],[105.507227,14.131994],[105.503457,14.132381],[105.502103,14.134827],[105.499456,14.134172],[105.498273,14.133059],[105.498976,14.129034],[105.49476,14.129299],[105.4938,14.127453],[105.490292,14.126125],[105.490002,14.122065],[105.487206,14.120187],[105.480175,14.118756],[105.478842,14.117351],[105.474239,14.12131],[105.472297,14.115224],[105.47005,14.116362],[105.467042,14.111997],[105.464679,14.11116],[105.461816,14.112885],[105.458886,14.109909],[105.457452,14.105808],[105.456391,14.108523],[105.454503,14.101796],[105.44557,14.104319],[105.445916,14.108964],[105.438584,14.106453],[105.438155,14.107753],[105.434701,14.106794],[105.435119,14.110125],[105.432375,14.106153],[105.429086,14.105462],[105.426262,14.10808],[105.423099,14.105551],[105.419051,14.106028],[105.417616,14.110569],[105.414235,14.111852],[105.413127,14.109872],[105.411227,14.111265],[105.409459,14.109684],[105.406326,14.11059],[105.40676,14.108445],[105.404794,14.106599],[105.407035,14.105162],[105.406158,14.104125],[105.402808,14.101677],[105.400543,14.105364],[105.397155,14.100711],[105.394995,14.102286],[105.394228,14.100514],[105.391991,14.101033],[105.390551,14.099844],[105.384569,14.105742],[105.379493,14.104871],[105.376896,14.102012],[105.372792,14.104268],[105.373048,14.102443],[105.370909,14.10225],[105.369353,14.105193],[105.370055,14.108021],[105.366478,14.106226],[105.367328,14.103425],[105.362014,14.104457],[105.363266,14.106269],[105.360899,14.10689],[105.35723,14.111225],[105.356964,14.11693],[105.354992,14.11639],[105.354575,14.117733],[105.352042,14.118022],[105.350728,14.121748],[105.347924,14.122757],[105.348314,14.12664],[105.343907,14.125977],[105.339628,14.129941],[105.340468,14.131105],[105.338852,14.134278],[105.334919,14.137246],[105.336958,14.13869],[105.336328,14.139824],[105.332896,14.139165],[105.33197,14.140895],[105.330095,14.139508],[105.327803,14.143482],[105.324217,14.145361],[105.327736,14.149372],[105.326804,14.152055],[105.323744,14.154417],[105.320687,14.154013],[105.324449,14.156648],[105.324731,14.159003],[105.320756,14.160834],[105.320521,14.162968],[105.316339,14.161846],[105.315658,14.163737],[105.312268,14.164032],[105.312915,14.161876],[105.31034,14.16176],[105.309242,14.160297],[105.308843,14.162236],[105.304408,14.164294],[105.304446,14.165936],[105.303523,14.164783],[105.298076,14.164907],[105.297043,14.166612],[105.298189,14.169971],[105.293595,14.173026],[105.288461,14.169695],[105.285288,14.171116],[105.28308,14.170542],[105.27534,14.176476],[105.274929,14.184602],[105.271018,14.193792],[105.264913,14.195474],[105.267142,14.19669],[105.266876,14.202155],[105.262651,14.206371],[105.25829,14.207669],[105.257099,14.210099],[105.257637,14.218746],[105.255551,14.221435],[105.257029,14.226218],[105.254814,14.22879],[105.249082,14.230967],[105.249009,14.237547],[105.246455,14.240739],[105.247546,14.252568],[105.246119,14.262292],[105.240693,14.273521],[105.236848,14.27768],[105.224091,14.28476],[105.2219,14.292714],[105.216824,14.301569],[105.206167,14.312671],[105.20578,14.32695],[105.206856,14.326704],[105.207396,14.333448],[105.205501,14.33666],[105.206471,14.343339],[105.198046,14.348451],[105.192887,14.346787],[105.186064,14.341976],[105.181438,14.342347],[105.176549,14.345911],[105.168374,14.334942],[105.167358,14.326759],[105.176016,14.32124],[105.17675,14.314706],[105.174283,14.31067],[105.170941,14.309013],[105.169174,14.304455],[105.160804,14.300998],[105.160271,14.289166],[105.15458,14.287739],[105.151447,14.284931],[105.150101,14.276998],[105.153309,14.268969],[105.145018,14.262535],[105.143596,14.259495],[105.151158,14.259607],[105.153763,14.257792],[105.154065,14.254668],[105.142891,14.23806],[105.126678,14.224843],[105.115078,14.221452],[105.111066,14.215773],[105.107383,14.213451],[105.102539,14.213135],[105.093413,14.215765],[105.085896,14.210329],[105.082471,14.209568],[105.076559,14.213065],[105.050194,14.214896],[105.046713,14.222252],[105.046168,14.227221],[105.036708,14.230509],[105.032096,14.234322],[105.03152,14.237864],[105.026782,14.23766],[105.022792,14.24135],[105.020937,14.251435],[105.026639,14.264841],[105.020145,14.263898],[105.015382,14.272578],[105.01538,14.276662],[105.004953,14.290756],[105.002764,14.302689],[104.991095,14.311267],[104.984489,14.318292],[104.985286,14.320238],[104.991471,14.322326],[104.993206,14.327549],[104.992716,14.343098],[104.998573,14.350689],[105.002666,14.361992],[105.001355,14.366019],[104.995006,14.373656],[104.994382,14.379669],[104.990047,14.37886],[104.983758,14.384917],[104.977782,14.387004],[104.972457,14.392335],[104.969056,14.392095],[104.964947,14.388819],[104.958041,14.391276],[104.955345,14.381297],[104.94625,14.382535],[104.941823,14.385211],[104.936787,14.392387],[104.932649,14.393469],[104.922091,14.401466],[104.916215,14.398815],[104.905418,14.399656],[104.90045,14.403171],[104.899008,14.405964],[104.894323,14.406163],[104.878257,14.412481],[104.87169,14.418192],[104.861801,14.408945],[104.85755,14.411965],[104.852645,14.406728],[104.841029,14.403176],[104.84013,14.3992],[104.837907,14.397922],[104.83361,14.401227],[104.835626,14.407392],[104.833958,14.409885],[104.833919,14.415792],[104.827497,14.419035],[104.819431,14.418006],[104.817214,14.429183],[104.808633,14.436642],[104.805849,14.437419],[104.791509,14.435157],[104.777842,14.425117],[104.766859,14.423533],[104.756784,14.414248],[104.757589,14.41123],[104.754688,14.408302],[104.754831,14.404941],[104.738882,14.414492],[104.731581,14.412935],[104.723689,14.403283],[104.719893,14.407532],[104.723682,14.419961],[104.723187,14.422848],[104.715846,14.428171],[104.714012,14.432933],[104.71115,14.433963],[104.698705,14.427349],[104.696182,14.422084],[104.691348,14.41675],[104.69237,14.412107],[104.685058,14.39841],[104.677709,14.400884],[104.666049,14.402393],[104.66111,14.400081],[104.659297,14.400593],[104.652952,14.408445],[104.656093,14.411858],[104.652826,14.421239],[104.64977,14.423444],[104.640949,14.423193],[104.626705,14.40757],[104.613856,14.398377],[104.602317,14.396335],[104.589375,14.381442],[104.579393,14.375267],[104.57837,14.373655],[104.580248,14.359269],[104.576645,14.358224],[104.569342,14.360476],[104.564472,14.354025],[104.553006,14.354142],[104.54508,14.356958],[104.53516,14.35556],[104.530472,14.359392],[104.524597,14.360895],[104.514826,14.370974],[104.498989,14.376234],[104.496201,14.373346],[104.485043,14.368982],[104.478344,14.363308],[104.475989,14.358745],[104.478628,14.355342],[104.478403,14.352013],[104.471561,14.346867],[104.463246,14.345183],[104.461221,14.347173],[104.463518,14.351182],[104.464118,14.355988],[104.461083,14.360239],[104.455668,14.360378],[104.450327,14.356731],[104.447543,14.356576],[104.442415,14.358962],[104.43734,14.357814],[104.432577,14.359936],[104.426305,14.368026],[104.414772,14.37187],[104.40688,14.366162],[104.404378,14.366202],[104.398341,14.374577],[104.390906,14.37395],[104.38577,14.371837],[104.383239,14.375169],[104.378265,14.377898],[104.376222,14.383558],[104.369423,14.375931],[104.361373,14.373984],[104.3551,14.369166],[104.340657,14.368642],[104.333902,14.372164],[104.330041,14.370656],[104.326446,14.373025],[104.321657,14.373917],[104.319268,14.378349],[104.315283,14.380122],[104.313917,14.382259],[104.311049,14.381529],[104.307204,14.38282],[104.291569,14.399686],[104.285999,14.3995],[104.278882,14.407207],[104.275355,14.408532],[104.267982,14.400972],[104.260334,14.399618],[104.258204,14.394815],[104.252087,14.391462],[104.25286,14.386001],[104.249229,14.379295],[104.245406,14.376031],[104.218874,14.367654],[104.209034,14.369196],[104.198236,14.383753],[104.194559,14.381829],[104.186773,14.38476],[104.18211,14.381154],[104.173553,14.378411],[104.170861,14.376251],[104.174924,14.370684],[104.171045,14.365371],[104.171647,14.358874],[104.145416,14.354623],[104.13699,14.357656],[104.139886,14.366043],[104.1392,14.371829],[104.136909,14.373591],[104.131805,14.375971],[104.121959,14.373961],[104.108068,14.378435],[104.106329,14.370195],[104.098818,14.367237],[104.097928,14.362342],[104.093328,14.353397],[104.084533,14.348],[104.076911,14.345369],[104.063331,14.343897],[104.056609,14.345574],[104.05422,14.34239],[104.032902,14.340217],[104.028274,14.337459],[104.027981,14.340415],[104.015171,14.342746],[104.010836,14.347581],[104.010278,14.355138],[104.008613,14.356302],[104.003835,14.355825],[103.999266,14.351804],[103.995671,14.345394],[103.990722,14.346897],[103.988501,14.345927],[103.982841,14.354163],[103.979529,14.354529],[103.971388,14.349687],[103.949937,14.350412],[103.945753,14.341275],[103.947299,14.332475],[103.942182,14.330234],[103.938097,14.331954],[103.929801,14.332054],[103.922647,14.336458],[103.913693,14.335979],[103.908154,14.338374],[103.900845,14.337332],[103.899768,14.338002],[103.901441,14.343978],[103.900419,14.345233],[103.893058,14.342893],[103.885428,14.343442],[103.884231,14.339493],[103.881709,14.338021],[103.875689,14.346144],[103.872424,14.346439],[103.868444,14.354442],[103.860471,14.357638],[103.862262,14.365508],[103.847441,14.370481],[103.838871,14.371511],[103.8342,14.369032],[103.828212,14.357917],[103.830756,14.353782],[103.82685,14.352971],[103.818974,14.35552],[103.808356,14.355105],[103.802864,14.356691],[103.80421,14.364982],[103.802323,14.369682],[103.795037,14.366765],[103.784688,14.366115],[103.779837,14.361546],[103.774668,14.360762],[103.774379,14.364935],[103.769035,14.367094],[103.758889,14.377828],[103.752071,14.371766],[103.74901,14.373322],[103.74627,14.377951],[103.739393,14.378489],[103.731591,14.385731],[103.724729,14.381315],[103.710619,14.379812],[103.707118,14.380653],[103.703724,14.383766],[103.700269,14.391876],[103.702568,14.398703],[103.702898,14.40907],[103.707202,14.412623],[103.708204,14.431126],[103.706931,14.432838],[103.688902,14.44037],[103.675638,14.436643],[103.666418,14.436963],[103.659508,14.439821],[103.65386,14.438634],[103.650076,14.434834],[103.644771,14.43366],[103.641425,14.42546],[103.641637,14.424363],[103.651022,14.42371],[103.656835,14.420795],[103.654432,14.413269],[103.648819,14.415814],[103.641982,14.414619],[103.621449,14.404054],[103.617735,14.405307],[103.615494,14.408159],[103.611612,14.416292],[103.61037,14.42525],[103.607495,14.422343],[103.604171,14.422065],[103.596447,14.424131],[103.591682,14.429132],[103.578168,14.433512],[103.57376,14.431212],[103.567628,14.432634],[103.564917,14.431571],[103.5596,14.432296],[103.549193,14.427468],[103.534941,14.425213],[103.523688,14.417741],[103.49817,14.412125],[103.496022,14.402685],[103.496861,14.389875],[103.492295,14.385851],[103.482801,14.387513],[103.480417,14.379401],[103.472357,14.37593],[103.470673,14.368537],[103.467666,14.364701],[103.459231,14.367497],[103.451145,14.368314],[103.447329,14.374519],[103.446099,14.382147],[103.439416,14.379109],[103.438165,14.389235],[103.43604,14.390892],[103.417394,14.381337],[103.41198,14.371581],[103.399193,14.369553],[103.398985,14.366311],[103.401994,14.357792],[103.392159,14.357238],[103.379909,14.352391],[103.352885,14.352694],[103.348184,14.354181],[103.341818,14.360237],[103.33946,14.360198],[103.336298,14.358977],[103.333039,14.351363],[103.325117,14.352008],[103.315706,14.356693],[103.281627,14.348305],[103.266366,14.349705],[103.259081,14.347484],[103.246308,14.338173],[103.237007,14.336064],[103.228597,14.328378],[103.21893,14.32359],[103.213679,14.328369],[103.203923,14.326791],[103.189983,14.33326],[103.17892,14.335256],[103.169679,14.33515],[103.161322,14.330982],[103.15361,14.313872],[103.145545,14.325836],[103.14093,14.326001],[103.128614,14.319834],[103.12836,14.313046],[103.130606,14.306629],[103.124091,14.302683],[103.115284,14.299618],[103.098423,14.299507],[103.088427,14.29607],[103.083529,14.29651],[103.079124,14.293877],[103.076872,14.288673],[103.073883,14.285836],[103.065424,14.285957],[103.055955,14.284086],[103.056856,14.27432],[103.038198,14.251752],[103.03187,14.250228],[103.03317,14.239051],[103.022078,14.228506],[103.017091,14.231231],[103.013275,14.230824],[103.009788,14.224181],[102.997202,14.213519],[102.989554,14.213139],[102.986104,14.214887],[102.971577,14.210482],[102.962451,14.212216],[102.951739,14.206146],[102.956778,14.198854],[102.956168,14.196737],[102.951262,14.196006],[102.944711,14.198503],[102.938832,14.19539],[102.940811,14.186195],[102.929885,14.176976],[102.937356,14.165107],[102.937181,14.161214],[102.940982,14.152294],[102.940407,14.148399],[102.936303,14.142129],[102.924961,14.132138],[102.923569,14.127182],[102.924641,14.110439],[102.923165,14.105986],[102.920065,14.104763],[102.920339,14.103527],[102.910959,14.095234],[102.90785,14.095593],[102.906734,14.091579],[102.904235,14.090335],[102.904613,14.088431],[102.900727,14.083413],[102.901918,14.072204],[102.900847,14.070498],[102.90248,14.067329],[102.898835,14.061462],[102.897792,14.051836],[102.900348,14.0478],[102.899633,14.043777],[102.903509,14.041333],[102.90392,14.037857],[102.901545,14.035718],[102.907068,14.029588],[102.908299,14.021193],[102.911061,14.019902],[102.911348,14.017309],[102.909322,14.015964],[102.907666,14.017262],[102.901359,14.01557],[102.893953,14.007372],[102.885521,14.010544],[102.882353,14.009181],[102.87993,14.003759],[102.866633,14.004259],[102.848956,13.986037],[102.815627,13.965435],[102.810958,13.953302],[102.803027,13.943026],[102.798325,13.942264],[102.793115,13.937718],[102.78291,13.932816],[102.766252,13.856377],[102.755999,13.84655],[102.72322,13.79326],[102.724308,13.789528],[102.732489,13.784846],[102.73203,13.770888],[102.701746,13.768042],[102.688584,13.751928],[102.664228,13.742011],[102.598029,13.706757],[102.590991,13.706776],[102.577571,13.697636],[102.576775,13.696298],[102.578168,13.694844],[102.577004,13.693002],[102.569049,13.690995],[102.566756,13.686955],[102.562842,13.683982],[102.555995,13.670438],[102.550635,13.665121],[102.551255,13.66312],[102.548021,13.658426],[102.550147,13.658294],[102.552614,13.654444],[102.554994,13.653604],[102.554388,13.652504],[102.557667,13.652335],[102.556604,13.650381],[102.55799,13.650207],[102.55758,13.648859],[102.561001,13.649392],[102.562014,13.646894],[102.563416,13.647775],[102.564187,13.64572],[102.56579,13.646147],[102.566075,13.644527],[102.570314,13.643055],[102.571169,13.635817],[102.572428,13.635833],[102.572506,13.633112],[102.573934,13.633047],[102.575354,13.629673],[102.57889,13.630197],[102.578428,13.628862],[102.580425,13.628078],[102.5841,13.630097],[102.586103,13.628661],[102.586591,13.62987],[102.590248,13.624786],[102.592535,13.626954],[102.594581,13.622594],[102.599886,13.623235],[102.601506,13.622374],[102.60191,13.619666],[102.604617,13.619717],[102.606471,13.61656],[102.610448,13.615281],[102.610864,13.617267],[102.613213,13.616143],[102.614042,13.613835],[102.621324,13.613091],[102.622771,13.610731],[102.624193,13.610908],[102.624201,13.608714],[102.617389,13.607505],[102.613184,13.608543],[102.613288,13.606826],[102.610821,13.605373],[102.606501,13.607137],[102.598165,13.606881],[102.596609,13.608484],[102.591164,13.606575],[102.588883,13.607951],[102.579897,13.606146],[102.573725,13.602669],[102.5734,13.597138],[102.570901,13.596176],[102.569145,13.591353],[102.570102,13.585849],[102.564186,13.582779],[102.562761,13.579073],[102.556347,13.578401],[102.553101,13.575115],[102.549366,13.577339],[102.546582,13.574729],[102.544782,13.575477],[102.543824,13.572602],[102.539946,13.569697],[102.540451,13.568655],[102.53121,13.565582],[102.527667,13.567153],[102.52685,13.564516],[102.525682,13.565965],[102.524092,13.564892],[102.521284,13.56708],[102.518946,13.567057],[102.51922,13.568027],[102.510706,13.569322],[102.509783,13.567444],[102.500624,13.571043],[102.49671,13.569413],[102.490083,13.572062],[102.483846,13.570632],[102.480132,13.572518],[102.479162,13.570678],[102.477115,13.571434],[102.475714,13.567587],[102.472395,13.566736],[102.471824,13.564858],[102.46966,13.56558],[102.469652,13.567178],[102.466628,13.565324],[102.463061,13.565969],[102.459151,13.561951],[102.453904,13.563154],[102.453138,13.561724],[102.444852,13.560727],[102.444192,13.563893],[102.438844,13.559799],[102.431143,13.56207],[102.428488,13.566612],[102.421045,13.571305],[102.418273,13.569988],[102.415207,13.570949],[102.414624,13.569],[102.411748,13.568983],[102.410191,13.566998],[102.405208,13.568863],[102.39711,13.566656],[102.390641,13.568133],[102.38721,13.572187],[102.38263,13.57199],[102.381106,13.574648],[102.378654,13.57481],[102.37812,13.57663],[102.375548,13.577689],[102.373058,13.575128],[102.366649,13.577938],[102.364779,13.577299],[102.36324,13.573511],[102.360827,13.572833],[102.359905,13.570992],[102.358323,13.571306],[102.359727,13.569534],[102.358472,13.568524],[102.359154,13.564978],[102.357015,13.565873],[102.355476,13.563336],[102.342513,13.560543],[102.342072,13.558627],[102.340087,13.559657],[102.338002,13.556483],[102.338945,13.554418],[102.337469,13.552352],[102.338633,13.551365],[102.336611,13.549752],[102.337972,13.546005],[102.335249,13.544871],[102.333848,13.540725],[102.335197,13.539437],[102.333828,13.537473],[102.335588,13.537342],[102.338652,13.532647],[102.341412,13.532759],[102.346416,13.529575],[102.347993,13.523964],[102.350468,13.523814],[102.349702,13.52227],[102.350987,13.519282],[102.357113,13.514386],[102.35893,13.511771],[102.357521,13.51044],[102.363547,13.50504],[102.360564,13.502461],[102.362232,13.498419],[102.360926,13.492854],[102.362953,13.49159],[102.360715,13.488367],[102.360833,13.483778],[102.359283,13.483507],[102.357039,13.479263],[102.357961,13.476115],[102.356559,13.474373],[102.357924,13.471638],[102.355171,13.461242],[102.356654,13.45854],[102.355541,13.451262],[102.35688,13.448974],[102.355303,13.447222],[102.358666,13.446573],[102.360234,13.443264],[102.3579,13.435749],[102.358862,13.431462],[102.361308,13.430763],[102.360624,13.426836],[102.362416,13.425559],[102.360558,13.423738],[102.361967,13.421553],[102.359691,13.418766],[102.360455,13.414043],[102.358804,13.408607],[102.360533,13.405896],[102.36039,13.401616],[102.359477,13.398801],[102.356909,13.398124],[102.354683,13.388098],[102.35676,13.381498],[102.351378,13.373247],[102.345081,13.346887],[102.352171,13.340289],[102.350432,13.335966],[102.352238,13.333978],[102.352326,13.330582],[102.357311,13.324662],[102.359644,13.313693],[102.357149,13.305651],[102.350026,13.291574],[102.349406,13.277356],[102.35146,13.272673],[102.362443,13.26857],[102.367061,13.262876],[102.366476,13.255416],[102.370556,13.236774],[102.378522,13.227168],[102.379253,13.223065],[102.386678,13.217174],[102.389669,13.202346],[102.393231,13.199175],[102.394232,13.191297],[102.391566,13.185303],[102.393143,13.177258],[102.3962,13.175346],[102.398413,13.170808],[102.399026,13.156602],[102.401611,13.151194],[102.404906,13.148846],[102.405913,13.145251],[102.411063,13.143931],[102.417788,13.137296],[102.416583,13.122993],[102.422727,13.116859],[102.424965,13.108188],[102.428668,13.107359],[102.432833,13.102183],[102.433838,13.09093],[102.439611,13.085561],[102.442958,13.085074],[102.444465,13.087072],[102.44999,13.083148],[102.459499,13.082174],[102.494368,13.013414],[102.505307,13.005429],[102.525226,13.005664],[102.530128,13.002475],[102.528576,13.000497],[102.525384,13.002119],[102.526307,12.999723],[102.520964,12.999919],[102.520855,12.998236],[102.522856,12.998645],[102.522512,12.996984],[102.516013,12.996329],[102.515964,12.991555],[102.513587,12.991466],[102.511776,12.995557],[102.508237,12.995841],[102.507472,12.994144],[102.501599,12.992244],[102.49934,12.986729],[102.496516,12.986982],[102.48732,12.983243],[102.485444,12.978576],[102.486056,12.976679],[102.489598,12.97504],[102.491349,12.971175],[102.496535,12.968783],[102.500673,12.961369],[102.495975,12.952545],[102.489657,12.950796],[102.485542,12.947982],[102.493278,12.93016],[102.492627,12.928344],[102.493966,12.92659],[102.494851,12.927199],[102.495144,12.922842],[102.497428,12.919989],[102.498442,12.921034],[102.501595,12.915186],[102.503448,12.906551],[102.502546,12.901546],[102.507856,12.897651],[102.509143,12.895058],[102.506398,12.888271],[102.508455,12.883941],[102.505077,12.882508],[102.50775,12.865818],[102.500654,12.863375],[102.497923,12.858786],[102.501171,12.849848],[102.514802,12.841063],[102.51454,12.836552],[102.516084,12.833157],[102.514937,12.828614],[102.516134,12.826283],[102.514744,12.823343],[102.518483,12.821298],[102.521201,12.821506],[102.522574,12.819129],[102.529354,12.818153],[102.529571,12.815015],[102.53223,12.811108],[102.528917,12.803989],[102.528067,12.796606],[102.529543,12.792362],[102.535209,12.78713],[102.535835,12.784143],[102.535597,12.778366],[102.533565,12.777085],[102.532594,12.772462],[102.533954,12.770201],[102.532457,12.767558],[102.524045,12.762776],[102.523457,12.758991],[102.51752,12.75186],[102.510772,12.75373],[102.508105,12.752779],[102.506358,12.751266],[102.505244,12.745749],[102.500033,12.7396],[102.504472,12.731936],[102.5023,12.719327],[102.5037,12.714649],[102.497282,12.704447],[102.498489,12.702263],[102.507174,12.69696],[102.509779,12.691747],[102.509056,12.686623],[102.50534,12.684128],[102.505485,12.682034],[102.511082,12.66987],[102.513688,12.669335],[102.516245,12.665013],[102.532843,12.65334],[102.539502,12.652003],[102.545582,12.656325],[102.550407,12.655924],[102.552385,12.652671],[102.554267,12.652582],[102.566812,12.657974],[102.571589,12.653652],[102.578923,12.65383],[102.581143,12.652226],[102.582687,12.644785],[102.585968,12.643894],[102.588091,12.640107],[102.592144,12.638636],[102.593109,12.63574],[102.598755,12.630349],[102.606185,12.628032],[102.606909,12.625359],[102.616994,12.61569],[102.627464,12.614799],[102.629346,12.612794],[102.629056,12.610076],[102.643291,12.612037],[102.645269,12.611101],[102.648067,12.599294],[102.646909,12.595952],[102.644352,12.595729],[102.645462,12.589892],[102.644449,12.585437],[102.650335,12.582674],[102.662205,12.582585],[102.667609,12.573362],[102.667851,12.563426],[102.675667,12.559461],[102.685124,12.548233],[102.677549,12.543153],[102.677887,12.538876],[102.685124,12.537762],[102.691928,12.533173],[102.693038,12.529831],[102.69738,12.527024],[102.695209,12.524306],[102.695113,12.520964],[102.704329,12.520341],[102.70568,12.517445],[102.704715,12.514548],[102.711277,12.509023],[102.715957,12.507509],[102.722133,12.512499],[102.728502,12.512677],[102.728937,12.509558],[102.72334,12.502474],[102.725657,12.495929],[102.720012,12.491206],[102.720349,12.486617],[102.722183,12.484969],[102.730096,12.490404],[102.733763,12.489201],[102.734391,12.486795],[102.740277,12.482028],[102.736996,12.474721],[102.736562,12.465854],[102.741918,12.465498],[102.743896,12.461889],[102.743365,12.459483],[102.746309,12.457299],[102.750024,12.462112],[102.752147,12.461269],[102.753884,12.456368],[102.756924,12.457438],[102.76532,12.456903],[102.769421,12.448482],[102.769132,12.441977],[102.773378,12.435427],[102.776514,12.435026],[102.778686,12.436541],[102.781388,12.433868],[102.787419,12.415466],[102.786695,12.407401],[102.784427,12.403748],[102.784958,12.400362],[102.779699,12.400317],[102.772172,12.393856],[102.761942,12.394079],[102.752389,12.392208],[102.742738,12.386901],[102.737768,12.37701],[102.734439,12.375272],[102.732654,12.371129],[102.725802,12.364311],[102.723872,12.347113],[102.725271,12.34034],[102.723389,12.334771],[102.726574,12.32381],[102.725223,12.31882],[102.726188,12.302468],[102.7231,12.285403],[102.719433,12.279522],[102.718757,12.273061],[102.713836,12.264373],[102.713594,12.261432],[102.714415,12.256442],[102.718323,12.248426],[102.717519,12.222361],[102.716883,12.221075],[102.714264,12.222885],[102.71328,12.222091],[102.708383,12.20592],[102.712099,12.195138],[102.707515,12.187608],[102.70351,12.172681],[102.708142,12.167335],[102.709783,12.152854],[102.720205,12.134987],[102.724306,12.131334],[102.727539,12.131556],[102.732509,12.124695],[102.735018,12.109457],[102.746791,12.096268],[102.752051,12.094044],[102.758131,12.080455],[102.761412,12.079252],[102.764934,12.075465],[102.770291,12.074485],[102.7714,12.069495],[102.769567,12.067668],[102.774633,12.051406],[102.774199,12.033629],[102.780038,12.023605],[102.776033,12.014026],[102.776708,12.004402],[102.780389,11.993762],[102.779961,11.991347],[102.784763,11.976728],[102.789248,11.977234],[102.793152,11.970647],[102.797078,11.962416],[102.796127,11.958157],[102.799828,11.949753],[102.808632,11.945382],[102.815176,11.93354],[102.813767,11.922422],[102.81908,11.916838],[102.81806,11.911848],[102.822515,11.907188],[102.821136,11.903368],[102.821279,11.896608],[102.81928,11.892707],[102.832787,11.85631],[102.836624,11.850565],[102.845718,11.844277],[102.847936,11.831912],[102.851041,11.826655],[102.860437,11.824213],[102.86248,11.822109],[102.862128,11.81934],[102.864451,11.815302],[102.862882,11.8128],[102.866638,11.806346],[102.881187,11.800068],[102.885942,11.79941],[102.881472,11.790234],[102.891742,11.787337],[102.894595,11.781498],[102.903867,11.769513],[102.908621,11.750372],[102.911331,11.745531],[102.91057,11.717652],[102.912329,11.696578],[102.911188,11.681827],[102.91328,11.675768],[102.912757,11.660226],[102.914185,11.655169],[102.908896,11.650461],[102.90938,11.648403],[102.905911,11.64481],[102.909375,11.648131],[102.912524,11.645364],[102.918321,11.634886],[102.916053,11.633284],[102.918536,11.628666],[102.916762,11.627148],[102.918848,11.62854],[102.920559,11.62795],[102.92282,11.63254],[102.928841,11.626056],[102.936309,11.612195],[102.938718,11.603846],[102.937956,11.598483],[102.939038,11.603276],[102.936858,11.613979],[102.939441,11.61522],[102.94367,11.614479],[102.944724,11.612947],[102.948359,11.616059],[102.95057,11.60726],[102.952316,11.605641],[102.955085,11.607693],[102.955597,11.6053],[102.957226,11.604684],[102.956737,11.603134],[102.953945,11.60416],[102.952665,11.601629],[102.955586,11.598189],[102.953611,11.598866],[102.952418,11.597214],[102.962053,11.592241],[102.975659,11.590326],[102.97311,11.584699],[102.972363,11.578709],[102.974785,11.577879],[102.97511,11.581758],[102.977891,11.575003],[102.979426,11.576106],[102.979359,11.579111],[102.980733,11.579217],[102.980042,11.575294],[102.976582,11.574256],[102.971383,11.577602],[102.96874,11.574115],[102.968587,11.571302],[102.986119,11.558834],[102.982524,11.558791],[102.97725,11.555933],[102.976391,11.560474],[102.965577,11.569892],[102.960704,11.56641],[102.959467,11.562534],[102.951711,11.554182],[102.950338,11.55084],[102.955944,11.54056],[102.970393,11.524276],[102.982447,11.51899],[102.985322,11.51459],[102.983312,11.506479],[102.986912,11.497304],[103.014459,11.456813],[103.014739,11.455608],[103.013533,11.457175],[103.012466,11.45619],[103.014967,11.439901],[103.011861,11.43362],[103.012799,11.432654],[103.014192,11.43355],[103.013483,11.432535],[103.012316,11.432348],[103.011119,11.434517],[103.006288,11.435946],[103.00624,11.437354],[103.004941,11.433751],[103.006654,11.432478],[103.008934,11.434645],[103.01121,11.433374],[103.01327,11.42412],[103.017918,11.421102],[103.020394,11.422012],[103.018498,11.422916],[103.021364,11.426082],[103.022967,11.424006],[103.025424,11.427227],[103.046467,11.437303],[103.050257,11.43721],[103.057066,11.431261],[103.060981,11.426826],[103.060677,11.423799],[103.062897,11.419628],[103.072665,11.417558],[103.073221,11.415206],[103.074996,11.414975],[103.076143,11.415815],[103.075077,11.420379],[103.07711,11.42295],[103.084663,11.410093],[103.087209,11.409141],[103.085655,11.408027],[103.08591,11.405275],[103.090827,11.400092],[103.090886,11.398669],[103.086618,11.400738],[103.085295,11.396042],[103.09014,11.362526],[103.095211,11.351323],[103.102706,11.347551],[103.105281,11.342166],[103.110946,11.342166],[103.118556,11.348962],[103.127839,11.349213],[103.129871,11.351071],[103.133697,11.350083],[103.137352,11.346433],[103.134389,11.343394],[103.133876,11.339885],[103.137523,11.33672],[103.140734,11.327962],[103.143905,11.325503],[103.146651,11.319948],[103.14442,11.317928],[103.143046,11.318601],[103.134635,11.3117],[103.128798,11.31271],[103.125709,11.31675],[103.120559,11.318096],[103.118327,11.30766],[103.113521,11.30463],[103.107341,11.303283],[103.106826,11.29958],[103.099788,11.297897],[103.091891,11.299748],[103.095839,11.293183],[103.094981,11.29049],[103.092921,11.290322],[103.093951,11.285608],[103.089831,11.283925],[103.088115,11.287123],[103.081248,11.284766],[103.075927,11.28443],[103.075755,11.286113],[103.070605,11.285945],[103.069101,11.281121],[103.074259,11.272674],[103.075263,11.265679],[103.07174,11.261546],[103.065122,11.260039],[103.063346,11.257093],[103.064127,11.253057],[103.068062,11.247324],[103.070036,11.239251],[103.064788,11.238826],[103.062801,11.236633],[103.058084,11.234949],[103.055604,11.233017],[103.056186,11.229545],[103.054469,11.228029],[103.052237,11.229713],[103.049834,11.22382],[103.047088,11.222978],[103.053782,11.215232],[103.067859,11.222473],[103.074038,11.222305],[103.07421,11.223652],[103.080733,11.218769],[103.092921,11.197215],[103.108027,11.151408],[103.111461,11.148545],[103.110602,11.145682],[103.115237,11.12547],[103.117469,11.099193],[103.111117,11.095487],[103.109401,11.084875],[103.105109,11.078979],[103.100131,11.079484],[103.098089,11.084054],[103.094809,11.084032],[103.088665,11.08109],[103.087785,11.076137],[103.094819,11.075054],[103.095085,11.055247],[103.099123,11.047631],[103.106367,11.002576],[103.10647,10.966539],[103.100016,10.959806],[103.093905,10.949043],[103.096662,10.944229],[103.09524,10.938623],[103.093201,10.937663],[103.098781,10.914952],[103.11526,10.908885],[103.122813,10.902816],[103.130124,10.892836],[103.132051,10.884363],[103.13108,10.877949],[103.128869,10.874475],[103.126707,10.873637],[103.118214,10.877437],[103.121871,10.871129],[103.142166,10.861606],[103.147246,10.865258],[103.145985,10.870795],[103.146987,10.87253],[103.150748,10.873954],[103.15671,10.873415],[103.165385,10.867416],[103.172417,10.859152],[103.175026,10.857525],[103.178128,10.858275],[103.182249,10.856546],[103.182733,10.859861],[103.180386,10.862222],[103.182498,10.870042],[103.204843,10.878281],[103.22169,10.879891],[103.22684,10.882588],[103.236796,10.897085],[103.229587,10.900119],[103.231303,10.90585],[103.240573,10.907536],[103.242976,10.91529],[103.248126,10.919335],[103.260486,10.92102],[103.277308,10.920346],[103.291385,10.914278],[103.303401,10.913267],[103.318086,10.904262],[103.324446,10.901388],[103.330867,10.900456],[103.348033,10.882925],[103.348771,10.86517],[103.35241,10.862793],[103.355929,10.865393],[103.358332,10.871462],[103.372409,10.880228],[103.378932,10.879891],[103.382777,10.874602],[103.388545,10.874834],[103.390948,10.878542],[103.403651,10.884274],[103.407187,10.88974],[103.410157,10.891367],[103.424594,10.891691],[103.426945,10.895471],[103.426404,10.901042],[103.423006,10.904843],[103.422113,10.910642],[103.422963,10.929023],[103.414216,10.945194],[103.411548,10.953381],[103.411891,10.959111],[103.418071,10.977312],[103.424868,10.985102],[103.428714,11.006633],[103.434807,11.015804],[103.440398,11.032901],[103.447093,11.045032],[103.450537,11.073293],[103.465213,11.084968],[103.4705,11.096423],[103.469491,11.104517],[103.467268,11.106193],[103.464775,11.106404],[103.452597,11.099909],[103.443499,11.098056],[103.441519,11.099685],[103.44676,11.103952],[103.453112,11.113385],[103.464389,11.121661],[103.471747,11.130405],[103.473002,11.139771],[103.488462,11.147792],[103.500834,11.161387],[103.510962,11.167113],[103.533792,11.168629],[103.5435,11.1677],[103.54701,11.166103],[103.553743,11.167403],[103.554735,11.166608],[103.552332,11.162903],[103.553877,11.159029],[103.570528,11.136292],[103.579454,11.116585],[103.590784,11.100078],[103.591986,11.093171],[103.614302,11.08458],[103.619452,11.087781],[103.628031,11.088453],[103.639536,11.084748],[103.653612,11.077673],[103.660135,11.080368],[103.658762,11.074978],[103.659277,11.068576],[103.666143,11.065543],[103.668253,11.062921],[103.666536,11.059047],[103.662241,11.059968],[103.656662,11.058039],[103.648291,11.052402],[103.649149,11.047854],[103.658934,11.033364],[103.662195,11.022917],[103.662367,11.018368],[103.660822,11.015672],[103.66374,11.002529],[103.662539,10.999664],[103.657732,10.997474],[103.675771,10.973207],[103.685243,10.956566],[103.685298,10.95043],[103.690347,10.944527],[103.702976,10.916073],[103.705997,10.905512],[103.699905,10.903417],[103.700235,10.902277],[103.704908,10.902714],[103.705658,10.901226],[103.709479,10.888658],[103.711393,10.875743],[103.712737,10.87441],[103.712148,10.854198],[103.713584,10.851977],[103.708774,10.836328],[103.706049,10.834501],[103.700945,10.826447],[103.701308,10.824355],[103.703972,10.823342],[103.698256,10.823829],[103.69505,10.821151],[103.685587,10.819632],[103.684063,10.813154],[103.682313,10.81444],[103.679112,10.809689],[103.675444,10.810165],[103.67448,10.809059],[103.672112,10.800007],[103.670022,10.79828],[103.671318,10.797692],[103.672093,10.793803],[103.672266,10.779233],[103.666322,10.769009],[103.663745,10.767519],[103.658051,10.769151],[103.657238,10.764513],[103.659162,10.7617],[103.661435,10.761239],[103.660882,10.756418],[103.66416,10.753411],[103.662752,10.750757],[103.671083,10.744002],[103.656973,10.741899],[103.648527,10.744211],[103.645682,10.741862],[103.641735,10.741157],[103.641077,10.73812],[103.631853,10.738405],[103.629418,10.743656],[103.626587,10.743325],[103.626823,10.744773],[103.62387,10.74543],[103.624568,10.748207],[103.622879,10.746679],[103.620638,10.747713],[103.621298,10.750219],[103.619989,10.749698],[103.620165,10.752456],[103.619145,10.752483],[103.619297,10.747626],[103.616764,10.747563],[103.616781,10.744074],[103.61441,10.739216],[103.616321,10.737952],[103.617741,10.733237],[103.616454,10.735661],[103.61382,10.736839],[103.611321,10.745003],[103.611654,10.741818],[103.60891,10.737611],[103.600633,10.735272],[103.59308,10.736284],[103.584742,10.741943],[103.579862,10.741344],[103.57859,10.738943],[103.574689,10.736903],[103.575511,10.735563],[103.571459,10.732496],[103.569844,10.72904],[103.55977,10.724792],[103.558128,10.721864],[103.555299,10.720926],[103.553495,10.722092],[103.551371,10.718821],[103.54208,10.720804],[103.543334,10.720447],[103.544445,10.716287],[103.544678,10.712109],[103.543593,10.711266],[103.54486,10.710972],[103.544329,10.703411],[103.545369,10.701609],[103.54151,10.683542],[103.53666,10.679897],[103.534161,10.682093],[103.528825,10.676262],[103.527044,10.668942],[103.520599,10.666016],[103.519143,10.6528],[103.514109,10.648677],[103.515969,10.648891],[103.514166,10.646673],[103.513452,10.649048],[103.500921,10.645783],[103.503367,10.649829],[103.501843,10.648915],[103.500645,10.645619],[103.498891,10.645204],[103.498,10.642741],[103.499129,10.645124],[103.500568,10.645362],[103.499941,10.643021],[103.50115,10.645305],[103.501364,10.639591],[103.499335,10.633113],[103.490246,10.622235],[103.49405,10.616871],[103.50305,10.608789],[103.503014,10.606017],[103.500667,10.603245],[103.501418,10.602447],[103.504773,10.605495],[103.505625,10.608573],[103.510235,10.609164],[103.517721,10.604375],[103.520264,10.606095],[103.522447,10.605821],[103.532789,10.596467],[103.542194,10.585724],[103.541275,10.583728],[103.543338,10.583309],[103.547491,10.577777],[103.561009,10.555949],[103.564047,10.547689],[103.562594,10.546092],[103.56518,10.53888],[103.571813,10.541287],[103.584532,10.556818],[103.58918,10.560277],[103.603247,10.552462],[103.610984,10.543072],[103.614954,10.532814],[103.610572,10.523564],[103.611426,10.515393],[103.608682,10.502639],[103.616361,10.498392],[103.627179,10.495609],[103.63259,10.48704],[103.634762,10.489462],[103.643297,10.489049],[103.644562,10.49115],[103.641943,10.492946],[103.645475,10.497319],[103.657094,10.499504],[103.660312,10.502229],[103.672459,10.499622],[103.674801,10.502469],[103.673795,10.506153],[103.679189,10.509216],[103.698061,10.506762],[103.701413,10.508116],[103.714464,10.50423],[103.726228,10.497536],[103.730493,10.499134],[103.732878,10.501136],[103.737083,10.51049],[103.736659,10.515509],[103.738568,10.519201],[103.736998,10.530024],[103.728743,10.533366],[103.726743,10.538555],[103.717827,10.545921],[103.716686,10.549039],[103.711295,10.551996],[103.711328,10.555326],[103.714661,10.551703],[103.718701,10.550636],[103.716885,10.55266],[103.719977,10.556138],[103.728154,10.552468],[103.730616,10.553629],[103.730947,10.543166],[103.73335,10.539453],[103.739187,10.540128],[103.756494,10.530352],[103.763481,10.531255],[103.768235,10.529574],[103.776193,10.535672],[103.784771,10.535418],[103.785324,10.53419],[103.781862,10.5319],[103.788282,10.523589],[103.795149,10.518526],[103.799614,10.518614],[103.803824,10.521771],[103.824888,10.561162],[103.869087,10.621995],[103.869451,10.628475],[103.865873,10.633273],[103.861318,10.629786],[103.854451,10.643452],[103.85325,10.651719],[103.858056,10.657286],[103.861661,10.657792],[103.862862,10.654586],[103.870416,10.651044],[103.879606,10.658579],[103.892489,10.654773],[103.903639,10.648456],[103.901849,10.637729],[103.908029,10.63233],[103.918157,10.607528],[103.920651,10.607355],[103.929384,10.595892],[103.937656,10.588646],[103.943021,10.586846],[103.946307,10.588698],[103.958759,10.587897],[103.972595,10.581943],[103.976789,10.582823],[103.979951,10.579338],[103.98582,10.577075],[103.993179,10.571773],[104.003907,10.568567],[104.009629,10.569575],[104.015113,10.561888],[104.027248,10.56017],[104.032219,10.556084],[104.042874,10.553731],[104.049796,10.549021],[104.05259,10.549777],[104.057175,10.548016],[104.064848,10.549095],[104.067183,10.54727],[104.07801,10.547685],[104.078423,10.549682],[104.081161,10.550047],[104.092351,10.547275],[104.101937,10.546991],[104.106011,10.547946],[104.117921,10.556814],[104.123308,10.558738],[104.127905,10.558265],[104.12835,10.560017],[104.133591,10.563004],[104.141691,10.564133],[104.145624,10.5634],[104.150427,10.559779],[104.152414,10.559993],[104.15561,10.556178],[104.164055,10.553197],[104.166386,10.553862],[104.170621,10.544326],[104.172454,10.543739],[104.175266,10.545433],[104.175865,10.543308],[104.17815,10.543265],[104.178864,10.540433],[104.180466,10.539611],[104.182409,10.540914],[104.183193,10.546223],[104.19769,10.5582],[104.203935,10.56029],[104.213364,10.557232],[104.216994,10.558317],[104.217045,10.560964],[104.214357,10.565027],[104.217126,10.563392],[104.215128,10.56626],[104.213481,10.56632],[104.213518,10.570793],[104.224641,10.567516],[104.233764,10.566699],[104.240252,10.568006],[104.243855,10.571597],[104.246262,10.571124],[104.248097,10.566831],[104.250891,10.565766],[104.254791,10.557336],[104.266175,10.54971],[104.272132,10.543264],[104.281106,10.527446],[104.28797,10.508641],[104.287223,10.505557],[104.28921,10.493555],[104.28814,10.482328],[104.289542,10.478097],[104.292456,10.479459],[104.30089,10.475576],[104.305642,10.475273],[104.30898,10.478303],[104.315507,10.479197],[104.341748,10.495444],[104.350781,10.496458],[104.359898,10.489562],[104.368514,10.480492],[104.377922,10.467955],[104.383389,10.457247],[104.386153,10.457207],[104.389005,10.452447],[104.397411,10.450358],[104.400653,10.447542],[104.404975,10.448486],[104.41506,10.446185],[104.416305,10.445604],[104.41559,10.443945],[104.418021,10.442276],[104.424486,10.442209],[104.423639,10.444445],[104.420197,10.445344],[104.426383,10.444511],[104.427716,10.440103],[104.429262,10.440191],[104.427679,10.434475],[104.439239,10.4232],[104.460367,10.428187],[104.479174,10.430661],[104.489489,10.419855],[104.488402,10.41764],[104.496585,10.405638],[104.498596,10.404744],[104.518503,10.440814],[104.527993,10.446856],[104.54239,10.448254],[104.55143,10.456753],[104.554767,10.462526],[104.557556,10.472948],[104.559416,10.492534],[104.570454,10.499197],[104.582718,10.504237],[104.586702,10.511944],[104.587385,10.528025],[104.595849,10.532136],[104.605973,10.532192],[104.616981,10.527332],[104.635057,10.528401],[104.638033,10.529674],[104.646365,10.529139],[104.64646,10.539222],[104.650118,10.539553],[104.694728,10.536901],[104.754071,10.517596],[104.869074,10.5222],[104.896904,10.547073],[104.921654,10.587273],[104.935252,10.613805],[104.956853,10.637834],[104.994991,10.661945],[105.098302,10.721012],[105.092035,10.756011],[105.077511,10.775042],[105.064281,10.781257],[105.061341,10.798634],[105.056917,10.801638],[105.058566,10.819149],[105.035719,10.867485],[105.029427,10.892385],[105.040768,10.896595],[105.043621,10.899316],[105.045806,10.899058],[105.045694,10.900676],[105.047351,10.901582],[105.043197,10.910574],[105.045849,10.912961],[105.055712,10.915794],[105.052128,10.925705],[105.053308,10.928229],[105.068843,10.937493],[105.075764,10.935211],[105.078886,10.935566],[105.07924,10.951825],[105.082932,10.956512],[105.096413,10.954941],[105.104684,10.957303],[105.113695,10.962188],[105.117377,10.96072],[105.117532,10.943829],[105.102571,10.924066],[105.102238,10.922035],[105.10561,10.919329],[105.108752,10.918462],[105.142651,10.923295],[105.15501,10.923328],[105.172099,10.91311],[105.197451,10.911397],[105.214106,10.901878],[105.238724,10.892789],[105.26504,10.896855],[105.265333,10.895154],[105.274941,10.888612],[105.284088,10.888049],[105.29402,10.881807],[105.338135,10.859885],[105.338494,10.865783],[105.340701,10.867753],[105.344018,10.866255],[105.354835,10.880219],[105.358276,10.879628],[105.360027,10.880854],[105.359369,10.886636],[105.368491,10.888171],[105.369909,10.893293],[105.369203,10.89687],[105.371593,10.897817],[105.371223,10.899964],[105.373254,10.903605],[105.378629,10.902131],[105.380448,10.90299],[105.378878,10.905395],[105.38069,10.906295],[105.380286,10.909956],[105.383326,10.910792],[105.385049,10.917266],[105.388936,10.920913],[105.391451,10.920516],[105.393696,10.924653],[105.396563,10.924045],[105.396577,10.927699],[105.398978,10.926361],[105.400029,10.928528],[105.40281,10.928162],[105.408104,10.931231],[105.406179,10.933184],[105.406523,10.935623],[105.411468,10.939522],[105.410614,10.943273],[105.427239,10.972753],[105.433087,10.973046],[105.436638,10.967706],[105.439748,10.965947],[105.442041,10.960845],[105.451558,10.954961],[105.456194,10.956019],[105.457848,10.959147],[105.464556,10.964147],[105.470024,10.963072],[105.47352,10.964654],[105.483225,10.957736],[105.482689,10.95374],[105.48417,10.95193],[105.496389,10.947438],[105.49864,10.953184],[105.504875,10.948927],[105.5365,10.951881],[105.554303,10.959845],[105.576309,10.962937],[105.641065,10.981365],[105.667703,10.987623],[105.695438,11.002117],[105.703082,11.010517],[105.716975,11.020513],[105.730098,11.025579],[105.741909,11.027238],[105.749329,11.025622],[105.751335,11.026685],[105.753343,11.025071],[105.767682,11.030314],[105.77744,11.032143],[105.779799,11.030552],[105.791155,11.002029],[105.807074,10.973469],[105.839673,10.934755],[105.864281,10.899342],[105.847924,10.866127],[105.849688,10.863089],[105.898416,10.844198],[105.935964,10.83917],[105.936465,10.846059],[105.930796,10.849247],[105.932265,10.851581],[105.929906,10.85534],[105.93008,10.863091],[105.931697,10.866275],[105.934394,10.865731],[105.93685,10.868515],[105.939834,10.869132],[105.939456,10.871129],[105.941322,10.872878],[105.944715,10.872957],[105.947742,10.875031],[105.951873,10.880736],[105.956234,10.883698],[105.955727,10.885959],[105.951093,10.889011],[105.952514,10.891678],[105.952315,10.896177],[105.944242,10.909932],[105.944604,10.917189],[105.976902,10.889755],[106.015451,10.850199],[106.034271,10.835773],[106.07265,10.811099],[106.093417,10.807966],[106.129772,10.80888],[106.165416,10.811677],[106.19095,10.788907],[106.187558,10.840055],[106.164645,10.884016],[106.145762,10.90604],[106.139988,10.914785],[106.143286,10.92399],[106.149841,10.932969],[106.152954,10.941705],[106.145,10.969801],[106.144066,10.9756],[106.144979,10.978298],[106.149107,10.979028],[106.153967,10.98286],[106.157947,10.979275],[106.170583,10.97826],[106.18054,10.973728],[106.190576,10.97173],[106.202774,10.974055],[106.205822,10.975953],[106.206101,10.977755],[106.196415,10.994136],[106.193643,11.002048],[106.194262,11.005068],[106.190386,11.019428],[106.187276,11.051623],[106.17332,11.07618],[106.153876,11.102085],[106.145769,11.101698],[106.13877,11.096014],[106.121275,11.088685],[106.112118,11.079125],[106.108674,11.071363],[106.1062,11.071105],[106.101388,11.073817],[106.098969,11.081007],[106.099859,11.086694],[106.092315,11.094417],[106.088429,11.101328],[106.084645,11.101653],[106.077883,11.098086],[106.073727,11.099324],[106.068667,11.109102],[106.06256,11.115849],[106.043511,11.129873],[106.023096,11.140392],[106.017793,11.150705],[106.013797,11.19079],[105.996054,11.19151],[105.981736,11.195297],[105.975228,11.198689],[105.967927,11.196034],[105.963325,11.196156],[105.941735,11.205743],[105.933213,11.214439],[105.926302,11.218342],[105.910782,11.240579],[105.907636,11.254764],[105.912265,11.26768],[105.907742,11.27585],[105.90897,11.283397],[105.907487,11.287502],[105.904415,11.284124],[105.898396,11.289451],[105.893993,11.290099],[105.889595,11.287941],[105.876916,11.288084],[105.868482,11.282424],[105.865463,11.284259],[105.86485,11.289843],[105.870797,11.29869],[105.871728,11.303323],[105.871578,11.307843],[105.868081,11.313331],[105.868038,11.317564],[105.869541,11.321984],[105.877591,11.33131],[105.878855,11.336395],[105.87839,11.350357],[105.884316,11.359258],[105.885026,11.362785],[105.883533,11.367752],[105.870544,11.374209],[105.872295,11.381783],[105.878772,11.390312],[105.874071,11.40552],[105.88102,11.407566],[105.885689,11.411969],[105.887046,11.417101],[105.890277,11.419859],[105.889794,11.422822],[105.891101,11.424779],[105.901188,11.428555],[105.901144,11.434088],[105.903806,11.440348],[105.903438,11.446959],[105.90039,11.446872],[105.900504,11.451821],[105.896957,11.450417],[105.893588,11.452237],[105.88761,11.450674],[105.885653,11.454463],[105.882701,11.454021],[105.880335,11.455597],[105.879279,11.462248],[105.876818,11.459303],[105.874685,11.461951],[105.877325,11.469235],[105.879666,11.470201],[105.879581,11.472927],[105.87747,11.474505],[105.880198,11.482956],[105.883039,11.482161],[105.884775,11.484261],[105.884266,11.493412],[105.881532,11.495641],[105.878689,11.501838],[105.880889,11.50288],[105.879303,11.509713],[105.881446,11.511621],[105.882578,11.509935],[105.88424,11.510605],[105.882208,11.514106],[105.885289,11.51994],[105.884632,11.524647],[105.885643,11.526124],[105.884444,11.527717],[105.885941,11.530017],[105.885424,11.532506],[105.88252,11.534568],[105.884182,11.537515],[105.881702,11.542149],[105.879771,11.542925],[105.880679,11.545746],[105.878564,11.546427],[105.87487,11.55133],[105.872144,11.55168],[105.873766,11.554914],[105.869061,11.555419],[105.86972,11.556418],[105.865383,11.559332],[105.867212,11.560545],[105.866632,11.562642],[105.862856,11.561779],[105.861899,11.566321],[105.8588,11.564525],[105.858091,11.565975],[105.856815,11.565783],[105.857257,11.564398],[105.852857,11.564711],[105.851822,11.563246],[105.852793,11.562179],[105.850924,11.560734],[105.848792,11.563706],[105.846032,11.561121],[105.845384,11.564528],[105.841319,11.562096],[105.841199,11.565236],[105.839098,11.563593],[105.83377,11.564512],[105.835501,11.565298],[105.834316,11.56956],[105.832689,11.56812],[105.832928,11.565535],[105.828361,11.564706],[105.826789,11.564832],[105.823269,11.570416],[105.819998,11.569951],[105.820493,11.567404],[105.817432,11.569002],[105.816519,11.570807],[105.818034,11.5706],[105.81871,11.572658],[105.81481,11.575129],[105.817706,11.58156],[105.811464,11.587136],[105.811929,11.591435],[105.810298,11.594979],[105.811886,11.596282],[105.809385,11.597158],[105.810728,11.599066],[105.809108,11.599526],[105.810288,11.602996],[105.811858,11.604389],[105.810787,11.605948],[105.813706,11.608777],[105.81222,11.609318],[105.811477,11.616418],[105.80973,11.618715],[105.812203,11.619892],[105.827878,11.619866],[105.832366,11.624929],[105.837167,11.636625],[105.844875,11.648545],[105.84412,11.651074],[105.850402,11.660305],[105.85933,11.666389],[105.868639,11.670384],[105.874781,11.671029],[105.88401,11.676967],[105.890721,11.676228],[105.901933,11.665294],[105.92554,11.649207],[105.943556,11.642399],[105.951754,11.640254],[105.954495,11.641216],[105.97115,11.657274],[105.973008,11.662141],[105.980325,11.66626],[105.981624,11.669318],[105.97975,11.673481],[105.98115,11.679759],[105.977568,11.684205],[105.978091,11.68649],[105.982891,11.692612],[105.994265,11.701695],[105.996825,11.703045],[106.000445,11.702392],[106.002953,11.704046],[106.00834,11.719604],[106.01515,11.726956],[106.015746,11.736153],[106.010388,11.749842],[106.014804,11.765088],[106.023495,11.774049],[106.032804,11.775095],[106.042086,11.778382],[106.050587,11.774412],[106.068968,11.776191],[106.072843,11.772957],[106.090578,11.764996],[106.093095,11.762256],[106.09346,11.757329],[106.101061,11.754764],[106.103014,11.74873],[106.115251,11.742848],[106.130168,11.745603],[106.152412,11.736826],[106.157939,11.738823],[106.16641,11.746934],[106.180669,11.74759],[106.184793,11.752811],[106.190942,11.753822],[106.194024,11.749659],[106.195126,11.741018],[106.212463,11.72885],[106.219182,11.728491],[106.226938,11.731648],[106.24184,11.726633],[106.249721,11.728283],[106.26643,11.72051],[106.269637,11.714452],[106.272791,11.713167],[106.270179,11.705706],[106.280136,11.698917],[106.298881,11.681237],[106.296832,11.676223],[106.298644,11.673014],[106.31729,11.675638],[106.32099,11.679745],[106.327377,11.682615],[106.329844,11.687099],[106.333221,11.686168],[106.335105,11.681509],[106.33935,11.681402],[106.344108,11.684755],[106.349577,11.686297],[106.356731,11.692166],[106.367036,11.69638],[106.385132,11.696737],[106.391383,11.692785],[106.399668,11.691387],[106.415712,11.677686],[106.426281,11.677663],[106.428031,11.675938],[106.427859,11.67288],[106.434268,11.670043],[106.440304,11.669175],[106.45093,11.670637],[106.453028,11.67285],[106.451938,11.677852],[106.453667,11.682384],[106.453546,11.690437],[106.448692,11.697222],[106.445142,11.698476],[106.444415,11.701345],[106.442767,11.700964],[106.441433,11.703883],[106.438512,11.70495],[106.439153,11.710042],[106.437573,11.712882],[106.434452,11.713661],[106.435141,11.719167],[106.431802,11.720523],[106.43151,11.723896],[106.427564,11.72705],[106.427655,11.731984],[106.422506,11.738506],[106.422779,11.744473],[106.418505,11.754293],[106.419957,11.75523],[106.419889,11.75725],[106.415914,11.759494],[106.417252,11.764702],[106.414296,11.766158],[106.418111,11.770193],[106.416194,11.773561],[106.417961,11.774521],[106.419428,11.779696],[106.423539,11.782998],[106.426522,11.787972],[106.427431,11.792764],[106.435588,11.802736],[106.432954,11.804811],[106.434661,11.805914],[106.433584,11.80747],[106.436472,11.808455],[106.43733,11.811972],[106.441813,11.815449],[106.440682,11.817866],[106.442746,11.820161],[106.444244,11.819088],[106.446161,11.822965],[106.447514,11.822743],[106.447704,11.827015],[106.445996,11.828132],[106.444163,11.833532],[106.441341,11.833473],[106.437903,11.840231],[106.441704,11.842843],[106.440125,11.843778],[106.439988,11.847899],[106.441059,11.848328],[106.438638,11.852267],[106.439875,11.856934],[106.441266,11.858697],[106.445611,11.859601],[106.445924,11.862426],[106.447047,11.861812],[106.445898,11.86315],[106.446699,11.866173],[106.448866,11.866619],[106.450028,11.865017],[106.455343,11.865741],[106.456913,11.864026],[106.466681,11.867526],[106.411855,11.973559],[106.41723,11.973714],[106.421463,11.971677],[106.426216,11.973169],[106.426734,11.972104],[106.427745,11.973049],[106.432147,11.972128],[106.434265,11.973193],[106.432482,11.977733],[106.436216,11.979896],[106.441191,11.986325],[106.443836,11.986922],[106.446481,11.985246],[106.449014,11.987439],[106.450859,11.986873],[106.454479,11.988819],[106.458426,11.985437],[106.464844,11.982698],[106.469251,11.973223],[106.484749,11.972005],[106.491996,11.968947],[106.496008,11.969148],[106.500614,11.974111],[106.507427,11.976327],[106.51004,11.980117],[106.519747,11.980765],[106.528045,11.977414],[106.533304,11.978183],[106.536507,11.975245],[106.531812,11.974274],[106.529119,11.970232],[106.531077,11.968355],[106.626996,11.97452],[106.628845,11.971695],[106.630787,11.97228],[106.631476,11.968927],[106.629617,11.965638],[106.630594,11.962528],[106.635795,11.961144],[106.635745,11.96932],[106.637172,11.968811],[106.639799,11.974473],[106.643409,11.974681],[106.641636,11.969884],[106.644503,11.968658],[106.643788,11.967171],[106.645772,11.965389],[106.647063,11.965948],[106.648044,11.963919],[106.65006,11.966495],[106.651382,11.96403],[106.653846,11.965598],[106.654804,11.963556],[106.656155,11.964139],[106.656048,11.966289],[106.657659,11.964297],[106.659696,11.965275],[106.658586,11.969339],[106.654526,11.970995],[106.654636,11.973974],[106.652091,11.9742],[106.649487,11.980096],[106.649548,11.981649],[106.653162,11.984165],[106.652928,11.988154],[106.654601,11.98759],[106.655241,11.989709],[106.657408,11.988503],[106.657594,11.98671],[106.66119,11.986592],[106.662806,11.983727],[106.666073,11.983849],[106.666976,11.979543],[106.670833,11.976645],[106.673561,11.97782],[106.673952,11.979728],[106.677549,11.978235],[106.678118,11.976994],[106.676294,11.977327],[106.677053,11.97277],[106.68339,11.964976],[106.685884,11.965576],[106.692932,11.963753],[106.696089,11.964715],[106.698191,11.968464],[106.703138,11.968642],[106.703723,11.966495],[106.711925,11.968853],[106.71466,11.972076],[106.718402,11.973029],[106.721112,11.968502],[106.722028,11.973613],[106.720823,11.976113],[106.724105,11.975695],[106.725965,11.980994],[106.733935,11.987387],[106.735251,11.991833],[106.739201,11.995132],[106.739145,11.998753],[106.7408,12.001132],[106.743032,12.002484],[106.743176,12.000087],[106.745353,12.001042],[106.744151,12.004685],[106.745722,12.005418],[106.747859,12.011767],[106.746423,12.021627],[106.748907,12.020782],[106.752387,12.021967],[106.755645,12.024838],[106.754902,12.027752],[106.756207,12.029117],[106.759384,12.028713],[106.759635,12.031024],[106.75817,12.030991],[106.758996,12.03249],[106.757014,12.032983],[106.758388,12.034359],[106.761461,12.034104],[106.760317,12.036142],[106.761882,12.038404],[106.76134,12.040859],[106.767263,12.042072],[106.767128,12.04461],[106.769595,12.044374],[106.767954,12.046155],[106.768188,12.049098],[106.770912,12.051805],[106.771045,12.054277],[106.772927,12.054623],[106.782171,12.065967],[106.780748,12.069635],[106.781619,12.072904],[106.784914,12.072512],[106.786292,12.076543],[106.790232,12.075443],[106.792933,12.082987],[106.797265,12.082395],[106.799219,12.084005],[106.804904,12.079654],[106.811547,12.079491],[106.814034,12.079772],[106.815358,12.083377],[106.823711,12.083075],[106.828239,12.08114],[106.834166,12.072114],[106.845725,12.074142],[106.847749,12.071007],[106.851024,12.069971],[106.852647,12.06673],[106.853526,12.067466],[106.855582,12.066023],[106.857565,12.069381],[106.858387,12.068399],[106.861337,12.0706],[106.865095,12.070394],[106.869483,12.073296],[106.876645,12.071997],[106.87982,12.073798],[106.883753,12.071823],[106.884721,12.07322],[106.886526,12.072898],[106.897065,12.066094],[106.90008,12.065653],[106.90617,12.068047],[106.911633,12.066829],[106.916296,12.061964],[106.922561,12.064312],[106.926905,12.063339],[106.939348,12.068793],[106.945311,12.067577],[106.947586,12.071657],[106.951358,12.07453],[106.989952,12.08507],[106.989078,12.087285],[106.994403,12.087822],[106.99306,12.094995],[106.996963,12.096137],[107.000185,12.094823],[107.002513,12.099039],[106.998314,12.102478],[107.005545,12.101055],[107.008724,12.10296],[107.002105,12.105188],[107.002182,12.109328],[107.005756,12.10721],[107.012297,12.108929],[107.012902,12.113062],[107.006895,12.111873],[107.00342,12.115263],[107.008407,12.115091],[107.011924,12.119761],[107.015413,12.12148],[107.016855,12.117361],[107.021153,12.119431],[107.022137,12.120882],[107.019732,12.124252],[107.023242,12.127243],[107.024698,12.121913],[107.028032,12.120868],[107.02896,12.125476],[107.03416,12.12674],[107.037598,12.131244],[107.041793,12.132443],[107.044684,12.13144],[107.046031,12.134355],[107.049649,12.134621],[107.047761,12.137665],[107.05003,12.142551],[107.054794,12.14249],[107.052243,12.148805],[107.05504,12.147835],[107.055433,12.151928],[107.059175,12.154744],[107.056264,12.157253],[107.059098,12.157593],[107.058773,12.161038],[107.061246,12.16133],[107.062811,12.157789],[107.066817,12.16132],[107.06934,12.159303],[107.073981,12.164021],[107.077694,12.162218],[107.078938,12.16303],[107.077884,12.165332],[107.079984,12.169321],[107.076189,12.171147],[107.074625,12.174721],[107.070974,12.175858],[107.069619,12.177745],[107.073636,12.179655],[107.071933,12.181184],[107.074531,12.183981],[107.07354,12.187364],[107.075718,12.188378],[107.080473,12.184376],[107.083403,12.186336],[107.086989,12.186199],[107.085863,12.1814],[107.092742,12.18125],[107.095892,12.187348],[107.095334,12.191798],[107.098136,12.191316],[107.096899,12.198085],[107.10199,12.201909],[107.100513,12.206553],[107.105707,12.208975],[107.108119,12.213575],[107.110601,12.214509],[107.111201,12.219489],[107.113957,12.21954],[107.112298,12.217806],[107.1149,12.216329],[107.117449,12.219505],[107.120825,12.219423],[107.120354,12.223843],[107.123216,12.221839],[107.123772,12.224576],[107.126315,12.227017],[107.129578,12.224245],[107.132637,12.228365],[107.138606,12.23008],[107.139462,12.237278],[107.137772,12.236475],[107.135436,12.23847],[107.137744,12.239185],[107.139011,12.242261],[107.136552,12.243211],[107.141688,12.245736],[107.139136,12.248511],[107.14027,12.2503],[107.145445,12.250252],[107.144492,12.251256],[107.146241,12.254527],[107.1441,12.258681],[107.148655,12.259027],[107.145256,12.263533],[107.149914,12.266801],[107.152596,12.266403],[107.15192,12.269606],[107.153636,12.272885],[107.151408,12.274689],[107.152201,12.276162],[107.154718,12.275468],[107.155564,12.27788],[107.159238,12.279022],[107.167578,12.278159],[107.169937,12.279872],[107.174938,12.280524],[107.176008,12.283026],[107.17867,12.283155],[107.180173,12.285873],[107.182955,12.28325],[107.185517,12.287128],[107.185015,12.290101],[107.188046,12.289528],[107.18951,12.291787],[107.191139,12.291041],[107.190737,12.29508],[107.198025,12.295552],[107.202178,12.298273],[107.20585,12.296032],[107.207441,12.299506],[107.208833,12.299839],[107.209736,12.297379],[107.211524,12.299085],[107.215799,12.297906],[107.220236,12.299535],[107.219536,12.296468],[107.221407,12.295342],[107.22201,12.297986],[107.224045,12.295368],[107.226607,12.29755],[107.230609,12.295891],[107.235863,12.298912],[107.237084,12.301344],[107.240848,12.30198],[107.240101,12.303545],[107.242764,12.303789],[107.243231,12.306811],[107.250009,12.30857],[107.25068,12.311487],[107.255491,12.312857],[107.257154,12.314936],[107.25908,12.314031],[107.259928,12.315695],[107.262134,12.314423],[107.268607,12.325058],[107.274367,12.325119],[107.281321,12.322036],[107.285796,12.323232],[107.287377,12.325851],[107.291908,12.328173],[107.298936,12.329406],[107.302738,12.328443],[107.309247,12.3332],[107.312331,12.329952],[107.312659,12.322297],[107.317324,12.321461],[107.326759,12.326057],[107.337764,12.326476],[107.34092,12.328808],[107.344606,12.334893],[107.346437,12.333941],[107.349539,12.326791],[107.355376,12.321445],[107.362794,12.319404],[107.366337,12.312909],[107.375196,12.305669],[107.378479,12.301136],[107.377599,12.296637],[107.382835,12.295547],[107.381941,12.293194],[107.383825,12.288166],[107.388935,12.285104],[107.38638,12.279043],[107.387935,12.275978],[107.387138,12.271019],[107.398761,12.261186],[107.398676,12.256445],[107.41551,12.246343],[107.417688,12.2402],[107.418512,12.24351],[107.421777,12.24697],[107.434075,12.246109],[107.436609,12.258117],[107.442113,12.264902],[107.438328,12.271433],[107.439361,12.27483],[107.444134,12.279238],[107.443879,12.287445],[107.445996,12.290613],[107.457006,12.294149],[107.463331,12.298098],[107.466673,12.301633],[107.467269,12.308921],[107.469773,12.311722],[107.482425,12.318],[107.502725,12.324367],[107.505553,12.327496],[107.511153,12.328758],[107.515892,12.336706],[107.521531,12.340173],[107.527024,12.340296],[107.527924,12.346612],[107.53346,12.345299],[107.535328,12.346569],[107.536891,12.351872],[107.54182,12.350205],[107.543897,12.350877],[107.547546,12.360804],[107.546849,12.367515],[107.544806,12.371965],[107.552197,12.375874],[107.554327,12.379303],[107.549326,12.385739],[107.543339,12.399666],[107.545799,12.404289],[107.544472,12.405705],[107.543805,12.415483],[107.54751,12.418758],[107.549937,12.41874],[107.550163,12.421082],[107.551728,12.421584],[107.554307,12.427596],[107.5548,12.433924],[107.567597,12.454277],[107.564966,12.456905],[107.566917,12.462907],[107.568798,12.464061],[107.565336,12.470424],[107.569818,12.476166],[107.575833,12.478595],[107.577207,12.482565],[107.576597,12.486175],[107.578892,12.489441],[107.579793,12.49532],[107.578129,12.497485],[107.573222,12.49929],[107.569377,12.503772],[107.570165,12.506907],[107.567655,12.506714],[107.567442,12.507802],[107.569146,12.51228],[107.562425,12.516605],[107.562571,12.522199],[107.565144,12.527274],[107.572061,12.530059],[107.577001,12.534669],[107.577582,12.536675],[107.575737,12.539971],[107.576104,12.542179],[107.578265,12.543195],[107.578028,12.546028],[107.588141,12.555458],[107.589536,12.558668],[107.587141,12.562864],[107.585083,12.563825],[107.5852,12.566423],[107.582549,12.567952],[107.579333,12.58106],[107.580271,12.585172],[107.582699,12.586328],[107.581531,12.591515],[107.585969,12.597979],[107.584474,12.599534],[107.585474,12.603451],[107.580824,12.610157],[107.584634,12.612891],[107.582198,12.614078],[107.581053,12.619197],[107.577709,12.620132],[107.578696,12.623267],[107.573471,12.625729],[107.572033,12.628375],[107.573851,12.631407],[107.5713,12.635061],[107.571957,12.640065],[107.569234,12.64258],[107.569283,12.648517],[107.571994,12.648666],[107.573882,12.650826],[107.569235,12.656395],[107.57143,12.661912],[107.570606,12.667506],[107.576213,12.670608],[107.576709,12.677229],[107.582056,12.67965],[107.58014,12.682187],[107.577913,12.681631],[107.57858,12.684256],[107.574793,12.688103],[107.574349,12.691028],[107.57035,12.692199],[107.567678,12.702419],[107.562364,12.704233],[107.562523,12.706436],[107.559899,12.708015],[107.559053,12.716146],[107.56737,12.727481],[107.567432,12.732444],[107.563034,12.738498],[107.564451,12.747117],[107.559769,12.747334],[107.55879,12.761644],[107.559827,12.770258],[107.562241,12.774148],[107.559116,12.781864],[107.559848,12.786535],[107.562432,12.787051],[107.56269,12.788356],[107.557276,12.804703],[107.554542,12.803875],[107.552378,12.806104],[107.55224,12.812519],[107.554223,12.817535],[107.550773,12.819545],[107.551151,12.823212],[107.545514,12.822048],[107.540716,12.83476],[107.53285,12.839348],[107.52656,12.840391],[107.525343,12.848249],[107.52218,12.853418],[107.511281,12.857623],[107.513179,12.86424],[107.511351,12.869559],[107.505055,12.87128],[107.498771,12.878174],[107.496647,12.892936],[107.492666,12.894144],[107.491801,12.897498],[107.496894,12.904621],[107.494884,12.908208],[107.49593,12.911443],[107.499316,12.911565],[107.50226,12.916612],[107.497425,12.91868],[107.495413,12.921015],[107.495633,12.923482],[107.49313,12.923869],[107.492803,12.927095],[107.495927,12.930138],[107.492817,12.930801],[107.493754,12.937065],[107.485199,12.943312],[107.484797,12.94826],[107.488032,12.94965],[107.485636,12.953698],[107.487469,12.955448],[107.487082,12.961394],[107.490398,12.965539],[107.487263,12.968946],[107.488219,12.971054],[107.495678,12.973939],[107.501778,12.973541],[107.504266,12.975819],[107.497975,12.982022],[107.496653,12.985675],[107.498263,12.998441],[107.49099,13.001991],[107.492836,13.011544],[107.491422,13.02046],[107.49462,13.02252],[107.49437,13.026275],[107.547979,13.170148],[107.609305,13.316913],[107.627679,13.366496],[107.619607,13.502074],[107.616953,13.525857],[107.572748,13.624424],[107.571381,13.630309],[107.570541,13.662685],[107.552323,13.694055],[107.535805,13.741461],[107.493441,13.772812],[107.48722,13.775349],[107.478347,13.776042],[107.469466,13.779618],[107.451383,13.794599],[107.45943,13.806752],[107.461728,13.816101],[107.455781,13.824143],[107.455529,13.828349],[107.46626,13.839765],[107.472779,13.853207],[107.453952,13.870821],[107.457269,13.878147],[107.470304,13.890742],[107.470798,13.909114],[107.473062,13.917843],[107.46956,13.921331],[107.458698,13.921487],[107.457262,13.926442],[107.453302,13.930033],[107.453795,13.947855],[107.455843,13.961663],[107.455457,13.980243],[107.452431,13.980742],[107.4456,13.988361],[107.444413,13.995774],[107.44255,13.997592],[107.436752,13.99651],[107.432184,13.993783],[107.428188,13.998373],[107.42247,13.994499],[107.411532,13.993619],[107.407116,13.990075],[107.401061,13.990129],[107.397075,13.993283],[107.393271,13.990887],[107.386299,13.989611],[107.374505,14.001488],[107.365594,14.013152],[107.357929,14.016497],[107.357412,14.027887],[107.364281,14.031621],[107.365655,14.034684],[107.36378,14.050605],[107.36601,14.055975],[107.364698,14.062559],[107.371482,14.070088],[107.370134,14.077222],[107.373529,14.08358],[107.367173,14.083484],[107.357521,14.096108],[107.352033,14.09802],[107.351348,14.100601],[107.344537,14.107032],[107.33685,14.106522],[107.335381,14.114975],[107.340823,14.132302],[107.345531,14.13695],[107.353855,14.149804],[107.353499,14.152407],[107.363015,14.162932],[107.358653,14.169032],[107.368476,14.179844],[107.375825,14.178506],[107.377379,14.179321],[107.382001,14.187629],[107.38182,14.192102],[107.386525,14.200157],[107.388027,14.206284],[107.390274,14.210242],[107.394137,14.209888],[107.394643,14.210944],[107.397401,14.224721],[107.408017,14.235508],[107.400234,14.249178],[107.40268,14.255564],[107.408318,14.260716],[107.409713,14.264692],[107.40938,14.278468],[107.407814,14.280558],[107.407585,14.284682],[107.405713,14.286565],[107.406723,14.298469],[107.405108,14.301513],[107.401319,14.303165],[107.397339,14.307436],[107.397122,14.311766],[107.391178,14.315772],[107.390825,14.325032],[107.392139,14.327952],[107.399285,14.332921],[107.402462,14.342574],[107.408362,14.346588],[107.410775,14.356574],[107.408603,14.363385],[107.412298,14.361872],[107.415203,14.362643],[107.428553,14.376759],[107.434291,14.381037],[107.439185,14.380913],[107.440148,14.382143],[107.441268,14.39292],[107.444007,14.395816],[107.440571,14.396378],[107.44633,14.402781],[107.449764,14.418533],[107.451411,14.418154],[107.453144,14.414444],[107.458429,14.412689],[107.459187,14.406979],[107.460517,14.406003],[107.467578,14.404754],[107.474576,14.408478],[107.477013,14.405469],[107.481368,14.403426],[107.488955,14.407208],[107.490409,14.413998],[107.489195,14.417145],[107.490711,14.42026],[107.489634,14.428818],[107.493149,14.43446],[107.496206,14.43435],[107.497863,14.436229],[107.502568,14.452769],[107.505723,14.457943],[107.501816,14.462065],[107.501386,14.465693],[107.504401,14.470269],[107.506334,14.485087],[107.510183,14.489347],[107.510081,14.496106],[107.514093,14.497959],[107.513753,14.501991],[107.510517,14.502859],[107.507021,14.508397],[107.511551,14.511032],[107.515753,14.511268],[107.521416,14.517815],[107.523305,14.524917],[107.522332,14.528551],[107.525815,14.53143],[107.525543,14.534028],[107.528062,14.536843],[107.52685,14.542579],[107.53215,14.546348],[107.52974,14.549746],[107.531977,14.552596],[107.531894,14.555468],[107.52994,14.558129],[107.525076,14.560401],[107.525979,14.562407],[107.522627,14.56582],[107.524058,14.572981],[107.522041,14.580466],[107.516963,14.584909],[107.522343,14.588114],[107.522124,14.591974],[107.525058,14.598131],[107.533994,14.598427],[107.539151,14.604205],[107.544131,14.606815],[107.545138,14.610991],[107.5441,14.616071],[107.549394,14.618048],[107.551463,14.617384],[107.559563,14.622553],[107.557328,14.625744],[107.558893,14.628264],[107.557836,14.63431],[107.554222,14.639953],[107.551342,14.640907],[107.551771,14.650311],[107.54979,14.652295],[107.548543,14.657951],[107.54855,14.659513],[107.554566,14.659407],[107.554837,14.667423],[107.551271,14.670504],[107.549616,14.677196],[107.555972,14.684416],[107.555714,14.686465],[107.541123,14.687233]]]]}}]}